{"type":"Topology","arcs":[[[21913,25203],[31,-50],[203,-179],[0,-77],[6,-84],[14,-79],[21,-114],[33,-77],[33,-82],[63,-221],[21,-26],[16,-22],[16,-22],[16,-25],[10,-23],[54,-125],[14,-41],[10,-27],[9,-26],[5,-17],[3,-22],[5,-33],[8,-47],[-5,-82],[-1,-23],[-3,-39],[-4,-49],[27,-79],[16,-38],[10,-24],[7,-14],[15,-28],[66,-72],[53,-67],[22,-27],[18,-22],[22,-28],[18,-23],[22,-26],[13,-17],[21,-25],[16,-22],[9,-16],[3,-2],[18,-26],[37,-1],[9,-9],[12,-12],[31,-34],[38,-133],[53,-79],[15,-24],[10,-14],[26,-36],[7,-8],[3,-5],[16,-24],[16,-2],[47,-10],[6,-1],[25,-6],[7,-1],[31,8],[17,16],[26,0],[63,6],[53,0],[28,-9],[11,-26],[4,0],[5,-1],[3,0],[4,-1],[5,0],[6,1],[6,0],[6,0],[5,1],[3,0],[5,2],[4,0],[5,1],[6,1],[4,0],[3,1],[4,1],[4,0],[3,1],[5,1],[5,2],[4,1],[5,1],[5,2],[4,1],[4,2],[3,1],[5,1],[4,1],[5,1],[4,0],[4,1],[4,0],[6,1],[6,1],[6,1],[4,1],[7,2],[7,2],[5,2],[4,1],[5,2],[6,2],[6,2],[3,1],[5,1],[5,1],[4,1],[6,2],[4,1],[4,1],[6,2],[3,1],[5,1],[5,3],[5,2],[5,1],[0,-5],[-1,-5],[1,-4],[3,-5],[4,-1],[5,0],[4,0],[5,0],[4,0],[3,1],[4,2],[4,2],[27,-1],[26,2],[18,0],[40,-2],[69,-3],[33,-2],[78,-5],[13,-5],[2,2],[6,-14],[5,-11],[6,-11],[7,-17],[4,-11],[2,-4],[4,-13],[2,-8],[3,-10],[3,-13],[3,-18],[2,-7],[-1,-5],[1,-7],[3,-8],[7,-12],[1,-4],[1,-5],[10,-37],[23,-115],[106,-242],[9,-21],[11,-28],[88,-242],[88,-146],[91,-149],[39,-77],[57,-123],[73,-152],[37,-75]],[[24755,21074],[-3,-2],[-37,-34],[-48,-51],[-57,-52],[-3,-22],[-9,-16],[-15,-14],[-33,-61],[-15,-33],[-75,-74],[-235,-368],[-225,63],[-39,16],[-270,104],[-97,-91],[-18,-30],[-111,-188],[-1,-3],[-41,-69],[-114,-202],[-159,-283],[223,-368],[-48,-21],[-30,-44],[-48,-35],[-49,2],[-50,-36],[63,-90],[21,-29],[28,-40],[131,-215],[-19,-116],[-434,-734],[-83,22],[-76,-9],[-109,35],[-19,4],[-112,5],[-82,4],[-55,-41],[-52,27],[-68,25],[-76,3],[-86,-10],[-52,-92],[-18,-80],[-27,-48],[-22,-22],[-12,-28],[-38,-31],[-28,-38],[-32,-34],[-37,-15],[-34,0],[-34,4],[-40,23],[-30,36],[-26,56],[-31,61],[-36,57],[-55,75],[-64,63],[-7,-5],[-13,-7],[-3,-8],[-7,-3],[-36,-18],[-19,-9],[-39,-20],[-51,-24],[-45,-22],[-13,-6],[-62,-30],[-45,-23],[-55,-26],[-83,-41],[-54,-20],[-70,-26],[-79,-29],[-52,-19],[-18,-7],[-12,-4],[-49,-18],[-31,-12],[-50,-18],[-24,-9],[-18,-7],[-55,-4],[-41,-4],[-38,-14],[-35,-12],[-72,-26],[-409,-72],[-22,-4],[-65,-23],[-44,-15],[-28,-10],[-66,-22],[-53,-19],[-27,-9],[-61,-21],[-42,-15],[-63,-22],[-48,-16],[-52,-18],[-76,-27],[-12,-8],[-47,-12],[-42,-16],[-58,-21],[-52,-18],[-84,-31],[-30,-11],[-88,-31],[-33,-8],[-68,-16],[-64,-16],[-69,-16],[-60,-15],[-97,-44],[-70,-33],[-84,-39],[-43,-20],[-16,-7],[-10,-5],[-72,-33],[-70,-33],[-38,-18],[-51,-23],[-31,-15],[-47,-11],[-43,-11],[-55,-14],[-46,-12],[-57,-14],[-64,-16],[-49,-13],[-68,-17],[-54,-13]],[[17500,16616],[-642,317],[-22,11],[-19,10],[-110,56],[-2,1],[-84,42],[-55,31],[-68,32],[-42,22],[-42,16],[-52,23],[-41,25],[-94,39],[-154,79],[-27,15],[-51,26],[-1,1],[-2,1],[-31,-15],[-36,-9],[-21,-5],[-16,38],[-1,3],[-1,3],[-23,56],[-24,57],[-12,16],[-9,23],[-32,52],[-11,16],[-2,2],[-10,18],[-11,58],[-3,261],[-31,341],[-37,228],[-184,306],[-230,96],[-131,67],[-12,18],[-112,182],[-65,108],[-50,81],[-96,174],[-60,106],[-14,25],[-22,50],[-41,37],[-8,25],[-18,37],[-14,37],[-17,36],[-8,17],[-16,23],[-5,13],[-5,12],[-49,126],[-50,51],[-67,66],[-24,21],[-25,32],[-11,36],[1,25],[-6,39],[-7,67],[-7,49],[-23,38],[-8,26],[-52,109],[-48,74],[-65,182],[-31,49],[-15,23],[-11,30],[-4,22],[-5,24],[-11,30],[-3,9],[-9,22],[-30,-2],[-82,-17],[-26,-4],[-29,-5],[-63,-10],[-21,-1],[-35,-7],[-16,-1],[-19,-4],[-35,-6],[-26,-6],[-36,-4],[-17,-6],[-43,-3],[-69,-15],[-33,-7],[-21,-1],[-52,-9],[-27,-4],[-50,-13],[-53,-9],[-26,-5],[-78,-25],[-102,-28],[-168,-28],[-252,-36],[-67,-10],[-40,-4],[-92,-13]],[[12435,20823],[0,0],[62,468],[2,11],[2,16],[1,1],[22,165],[29,216],[0,2],[1,7],[1,4],[-13,53],[-49,84],[24,111],[69,83],[49,84],[61,120],[71,162],[30,93],[2,5],[23,72],[3,26],[5,15],[6,30],[3,13],[9,49],[2,13],[14,44],[43,32],[38,28],[44,28],[37,27],[38,32],[55,45],[40,37],[46,25],[42,20],[45,18],[44,18],[42,14],[59,19],[48,14],[29,6],[21,10],[8,12],[9,17],[81,277],[15,68],[13,63],[6,20],[6,25],[3,23],[10,21],[-1,33],[5,42],[-5,55],[-1,23],[6,63],[1,37],[0,59],[1,44],[-1,67],[0,56],[1,36],[4,40],[-1,21],[3,61],[4,35],[5,38],[5,73],[3,25],[4,48],[2,36],[0,4],[8,82],[9,171],[0,8],[1,13],[0,4],[2,34],[1,1],[3,15],[19,59],[1,3],[41,127],[36,115],[21,59],[7,29],[93,291],[16,45],[87,277],[16,50],[61,194],[3,10]],[[14146,26152],[68,-41],[95,-60],[40,-26],[154,-99],[104,-65],[56,-34],[18,-11],[8,-7],[77,-44],[84,-52],[8,-5],[27,-22],[35,-38],[100,-62],[72,-50],[42,-120],[67,-201],[34,-99],[2,-5],[19,-58],[38,-115],[68,-189],[33,-94],[4,-11],[229,-709],[5,-14],[23,-65],[6,-17],[14,-51],[11,-39],[27,-66],[10,-3],[68,-259],[10,-20],[23,-41],[23,-26],[36,-67],[17,-28],[17,-55],[27,-62],[42,-41],[70,-30],[60,-40],[62,-27],[29,-12],[116,-108],[89,-161],[3,-4],[82,-74],[9,-7],[74,-47],[-13,-71],[-29,-61],[-28,-45],[-9,-34],[-23,-68],[-19,-72],[-37,-35],[-56,-55],[-38,-39],[-51,-51],[5,-10],[23,-46],[14,-39],[31,-49],[23,-32],[6,-12],[32,-55],[37,-56],[18,-39],[11,-19],[25,-40],[7,-17],[21,-25],[7,-19],[19,-25],[20,-35],[19,-18],[10,-11],[25,-100],[3,-37],[3,-33],[7,-22],[5,-39],[4,-55],[30,-99],[13,-40],[29,-144],[11,-53],[6,-39],[10,-41],[8,-46],[1,-35],[32,-168],[117,-1],[23,-6],[44,-9],[29,-7],[21,-8],[25,-8],[52,-13],[44,-14],[47,-15],[22,-11],[67,-1],[15,3],[121,-5],[22,-5],[56,0],[48,-1],[13,-2],[20,-4],[22,2],[130,-13],[84,-7],[23,-4],[47,-4],[50,-7],[28,0],[39,-6],[41,-9],[37,5],[13,-5],[59,-5],[48,-5],[85,-11],[36,-4],[9,-1],[54,-6],[61,-6],[4,1],[183,98],[58,34],[37,20],[24,13],[45,17],[54,25],[45,20],[60,18],[26,12],[100,60],[154,89],[78,48],[82,30],[89,63],[107,53],[107,53],[26,15],[66,44],[10,10],[4,5],[12,-2],[32,21],[41,-41],[3,4],[13,-5],[17,9],[16,9],[-56,54],[109,74],[25,22],[23,9],[70,31],[22,9],[3,9],[-41,15],[-13,15],[-9,20],[-6,47],[-10,54],[-6,31],[-10,19],[-15,14],[-18,3],[-11,-4],[-16,-10],[-17,-23],[-18,-42],[-6,-27],[-7,-45],[-3,-26],[-11,-30],[-16,-20],[-14,-6],[-20,0],[-19,4],[-21,11],[-22,23],[-9,18],[-3,19],[4,23],[14,42],[4,21],[-1,23],[-7,21],[-21,24],[-21,13],[-24,4],[-28,1],[-21,6],[-11,9],[-6,13],[-5,14],[0,14],[12,18],[19,21],[8,12],[7,16],[2,16],[-1,23],[-3,34],[-3,28],[4,25],[7,17],[17,15],[16,26],[7,20],[0,15],[-9,20],[-17,17],[-21,17],[-15,14],[-11,9],[-15,4],[-16,-1],[-14,-8],[-16,-11],[-7,-15],[-6,-17],[2,-29],[2,-26],[-2,-26],[-9,-9],[-14,-10],[-17,-2],[-21,5],[-18,14],[-19,28],[-15,38],[5,7],[10,12],[122,147],[7,8],[19,-1],[6,8],[165,187],[23,15],[37,33],[41,41],[57,54],[46,72],[54,86],[16,27],[29,43],[37,58],[10,25],[9,27],[11,29],[193,264],[16,29],[30,46],[13,18],[10,29],[32,22],[-7,8],[45,72],[31,16],[2,24],[22,37],[78,119],[27,86],[50,-2],[52,74],[33,46],[84,118],[50,104],[71,146],[5,9],[25,11],[109,88],[82,60],[23,36],[36,59],[80,101],[76,100],[20,68],[23,37],[42,65],[52,-22],[29,76],[62,51],[25,98],[-1,59],[27,84],[77,104],[77,114],[4,5]],[[24755,21074],[31,-64],[7,-13],[22,-48],[26,-50],[10,-19],[29,-63],[22,-51],[39,-60],[5,-6],[52,-83],[48,-128],[41,-115],[105,-298],[154,-229],[2,-5]],[[25348,19842],[75,-178],[44,-102],[25,-57],[30,-71],[9,-52]],[[25531,19382],[34,-182],[42,-108],[27,-72],[37,-90],[39,-88],[71,-196],[33,-93],[24,-66],[11,-39],[-259,-185],[-34,-21],[-231,-191],[-15,-4],[-68,-20],[-214,-115],[-128,-68],[-12,-6],[-25,-13],[-20,-10],[-5,-4],[-17,-12],[-5,-3],[-10,-7],[-8,-8],[-11,-10],[-12,-11],[-10,-7],[19,-65],[53,-200]],[[24837,17488],[53,-201],[-2,-5],[-7,-20],[12,-43],[56,-186],[72,-142],[37,-84],[35,-121],[5,-9],[25,-58],[3,-77],[10,-84],[8,-54],[11,-56],[7,-44],[18,-179],[-1,-7],[0,-10],[0,-14],[0,-17],[1,-37],[33,-114]],[[25213,15926],[19,-64],[8,-26],[4,-15],[4,-13],[42,-147],[13,-44],[54,-82],[9,-39],[4,-20],[19,-79],[39,-182],[16,-80],[-44,-175],[-9,-28],[-19,-56],[-13,-34],[-13,-43],[-2,-43],[-3,-54],[-3,-61],[6,-37],[4,-62],[11,-73],[5,-45],[11,-119],[0,-6],[4,-31],[4,-36],[9,-85],[2,-27],[7,-46],[9,-78],[3,-31],[6,-113],[-70,-131],[-20,-37],[-6,-12],[-9,-18],[-4,-7],[-6,-10],[-85,-160],[-64,-100],[-53,-123],[-5,-12]],[[25097,13242],[-34,19],[-353,199],[-239,369],[-101,80],[-422,-9],[-129,38],[-107,30],[-128,29],[-102,28],[-13,5],[-18,5],[-9,7],[-12,6],[-17,8],[-11,1],[-10,2],[-16,6],[-37,8],[-118,28],[-49,24],[-28,18],[-56,37],[-68,20],[-70,28],[-83,32],[-59,11],[-71,28],[-48,8],[-16,9],[-29,9],[-49,-17],[-51,-25],[-82,44],[-37,23],[-128,50],[-51,16],[-15,13],[-111,40],[-44,22],[-22,12],[-21,17],[-11,3],[-5,5],[-36,14],[-22,11],[-30,15],[-30,17],[-27,14],[-4,2],[-20,12],[-3,1],[-24,12],[-24,12],[-25,13],[-21,11],[-11,5],[-21,10],[-8,4],[-38,18],[-81,40],[-16,7],[-39,20],[-5,3],[-3,2],[-8,5],[-4,3],[-9,4],[2,2],[2,3],[18,24],[14,24],[-2,23],[-3,6],[-7,14],[-17,12],[-10,0],[-30,-2],[-21,-1],[-43,1],[-26,8],[-17,10],[-8,10],[-8,15],[-14,32],[-9,28],[0,26],[6,46],[13,32],[22,32],[8,6],[-13,7],[-15,8],[-130,74],[-82,46],[-123,67],[-111,57],[-73,28],[-58,11],[-113,27],[-65,13],[-17,6],[-163,48],[-78,18],[-45,10],[-167,47],[-71,20],[-58,40],[-33,18],[-99,72],[-108,93],[-4,4],[-18,19],[-138,103],[-145,82],[-62,11],[-29,5],[-3,1],[-32,6],[-24,5],[-117,66],[-120,81],[-25,3],[-203,25],[-10,3],[-371,113],[-98,10],[-8,2],[-6,2],[-3,1],[-3,1],[-136,38],[-5,1],[-49,13],[-7,2],[-138,38],[-165,44],[-80,21],[-257,72]],[[31461,23030],[1288,989],[47,-49],[120,-110],[40,-36],[24,-23],[25,-22],[20,-17],[39,-34],[74,-68],[32,-27],[3,-8],[17,-16],[15,-9],[13,-12],[22,-18],[40,-30],[33,-32],[3,7],[9,26],[8,19],[36,-5],[5,-25],[21,-90],[49,-42],[3,-2],[305,-137],[193,-73],[504,-252],[70,-46],[97,-82],[49,-53],[98,-41]],[[34763,22712],[-7,-2],[684,-540],[73,-253],[-390,-75],[296,-897],[-123,-253],[231,-271],[-476,276],[260,-989],[-195,-166],[-403,-12],[-361,-207],[36,-42]],[[34388,19281],[-17,11],[-61,47],[-65,47],[-9,3],[-33,-2],[1,78],[-3,10],[-17,7],[-42,8],[-30,15],[-41,12],[-45,14],[-72,10],[-56,11],[-35,3],[-42,-3],[-2,5],[-2,20],[-10,15],[-2,7],[-18,28],[-17,34],[-8,2],[-54,-35],[-5,0],[-51,71],[-16,32],[-5,26],[-17,14],[-46,42],[-22,17],[-7,6],[-10,-8],[-7,0],[-19,26],[-16,8],[-16,0],[-25,-4],[-28,2],[-25,11],[-18,27],[-30,54],[-5,19],[-1,18],[0,17],[0,14],[0,15],[-1,16],[-4,16],[-7,14],[-9,16],[-5,11],[-4,5],[-4,4],[-5,1],[-11,4],[-16,5],[-16,5],[-7,2],[-14,4],[-8,3],[-6,2],[-3,2],[-5,3],[-4,4],[-2,4],[-2,5],[-4,6],[-2,4],[-3,3],[-4,1],[-6,2],[-6,1],[-17,9],[-12,6],[-39,18],[-22,8],[-14,5],[-10,5],[-92,32],[-5,-5],[-15,-11],[-1,-3],[-13,7],[-8,19],[-31,28],[-11,90],[-12,65],[-19,39],[-32,59],[-13,34],[-3,31],[8,34],[10,21],[30,31],[36,17],[-3,7],[-27,24],[4,7],[18,28],[25,27],[20,25],[21,26],[18,24],[12,14],[17,44],[22,33],[22,17],[32,18],[-108,78],[-88,54],[-129,40],[-92,157],[47,189],[67,44],[25,19],[54,-31],[90,137],[157,-46],[23,-11],[-33,62],[5,86],[-41,94],[-5,2],[-2,6],[-17,15],[-30,21],[-3,4],[-4,5],[-7,-1],[-8,1],[-5,1],[-114,22],[-139,158],[-28,22],[-52,40],[-23,20],[-31,24],[-13,10],[-9,6],[-23,19],[-46,35],[-10,7],[-27,22],[-11,9],[-6,6],[-8,8],[-12,18],[-19,25],[-9,12],[-8,10],[-55,38],[-14,10],[-6,3],[-6,5],[-17,12],[-10,8],[-6,3],[-8,5],[-29,19],[-22,15],[-5,5],[-5,3],[-11,8],[-22,15],[-15,11],[-9,6],[-8,6],[-4,3],[-37,26],[-4,6],[-8,6],[-11,8],[-3,1],[-14,10],[-16,10],[-16,10],[-17,11],[-16,10],[-14,11],[-9,5],[-155,106],[-102,73],[-63,29],[-19,13],[-77,50],[-91,60]],[[25097,13242],[23,-33],[4,-4],[73,-101],[309,-444],[8,-12],[76,-103],[65,-101],[9,-12],[28,-38],[2,-2],[61,-83],[96,-130],[36,-60],[49,-75],[55,-95],[13,-23],[103,-40],[20,-10],[39,-25],[137,-88],[155,-138],[81,-72],[39,-37],[37,-31],[54,-40],[107,-91],[88,-89],[23,-19],[54,-48],[38,-31],[24,-19],[16,-15],[45,-39],[24,-21],[30,-47],[2,-3],[21,-23]],[[27141,11000],[-9,1],[173,-454],[-231,-103],[166,-202],[-180,-373],[-454,-179],[310,-92],[57,-356],[-115,-190],[-296,34],[58,-442],[-202,-161],[-230,63],[-43,-253],[-390,6],[44,419],[-490,81],[-462,-253],[-360,144],[-785,161],[-87,264],[973,-103],[58,138],[-793,258],[-144,-241],[-685,52],[87,-213],[209,46],[612,-397],[-7,-103],[-468,86],[-332,-247],[-425,57],[-108,-144],[-245,317],[79,207],[-324,270],[-656,-35],[-21,-235],[-231,-58],[-22,-236],[-367,-184],[562,58],[-173,-173],[108,-460],[-187,-149],[-440,138],[-713,-98],[-238,92],[43,368],[389,311],[58,178],[-461,356],[50,328],[332,472],[-339,-184],[-173,-351],[-375,-161],[-43,253],[-166,-127],[-29,420],[-173,0],[-64,-362],[-483,-518],[-15,-299],[-245,-483],[-562,75],[65,771],[245,580],[-72,142]],[[17706,9527],[8,8],[28,28],[5,6],[4,4],[29,30],[70,73],[24,23],[9,10],[23,24],[24,25],[4,6],[5,9],[3,7],[21,20],[67,57],[13,17],[31,47],[24,29],[38,17],[28,32],[3,4],[14,18],[0,8],[27,28],[6,6],[40,41],[17,18],[35,35],[52,53],[4,3],[34,36],[44,44],[20,21],[65,65],[24,23],[11,14],[-7,30],[-39,153],[5,16],[9,45],[21,79],[1,12],[4,19],[4,2],[31,17],[7,3],[27,15],[0,6],[49,21],[3,12],[2,10],[-22,19],[7,8],[50,64],[-9,45],[-10,19],[-12,23],[-42,7],[-10,1],[1,7],[27,30],[11,14],[10,21],[6,27],[9,17],[18,14],[18,3],[0,4],[-33,0],[-34,0],[-24,1],[7,26],[11,9],[11,30],[-13,1],[5,21],[5,8],[13,19],[11,-1],[15,-2],[-23,40],[13,117],[-62,13],[2,19],[0,19],[-117,14],[-47,9],[106,51],[-3,18],[-1,4],[-6,17],[-2,8],[-12,18],[-2,8],[1,16],[7,12],[13,6],[16,2],[8,0],[6,-3],[5,-2],[6,-2],[20,0],[11,-2],[8,3],[9,1],[15,-13],[9,2],[6,1],[6,0],[3,3],[4,10],[3,8],[2,4],[2,5],[2,10],[1,4],[-2,7],[0,7],[-2,6],[-3,3],[-1,6],[1,10],[0,6],[-3,33],[-1,34],[-1,15],[-1,3],[1,5],[-1,6],[-1,7],[-2,7],[-1,10],[-7,14],[-6,10],[-6,10],[-8,11],[-6,13],[-4,14],[-5,17],[-7,38],[-1,6],[0,8],[-3,7],[-4,7],[-2,6],[-5,13],[-3,15],[-3,11],[-5,17],[-3,11],[-6,24],[-5,17],[-8,26],[-3,10],[-2,9],[-3,8],[-3,8],[-2,6],[-2,8],[-1,8],[-2,16],[-2,14],[-2,7],[-1,9],[-5,35],[-1,8],[-3,10],[-2,13],[-1,9],[-1,11],[0,8],[0,8],[1,8],[0,6],[-1,10],[-1,10],[0,10],[-1,6],[0,4],[1,18],[0,9],[0,13],[0,10],[0,12],[0,9],[-1,8],[0,9],[-1,8],[-1,4],[-1,4],[-3,10],[-2,6],[-2,7],[-2,7],[-3,7],[-1,8],[-3,9],[-2,8],[-2,6],[-3,10],[-1,7],[-2,7],[-2,7],[-2,7],[-2,7],[-2,8],[-2,8],[-2,7],[-2,9],[-2,7],[-2,8],[-2,7],[-1,9],[-2,6],[-1,7],[-3,7],[-2,7],[-2,6],[-3,7],[-2,6],[-3,6],[-4,5],[-3,6],[-5,7],[-3,5],[-5,7],[-9,10],[-6,7],[-5,8],[-6,10],[-5,7],[-2,6],[-3,5],[-2,3],[-6,7],[-7,5],[-8,6],[-7,4],[-5,6],[-2,7],[-3,5],[-1,4],[-2,5],[-3,5],[-1,5],[-4,0],[-7,12],[-6,17],[-6,12],[-15,29],[-12,22],[-10,22],[-5,15],[-3,11],[-1,16],[0,18],[1,25],[5,3],[-8,20],[-9,17],[-6,16],[-8,18],[-8,21],[-4,11],[-4,14],[-3,7],[-5,23],[-7,23],[-9,28],[-7,23],[-7,18],[-4,13],[-8,19],[-6,15],[-5,12],[-5,21],[-7,13],[-10,15],[-6,15],[-3,8],[0,9],[-6,14],[-9,44],[-1,8],[-2,12],[-2,21],[-9,39],[-14,43],[-3,8],[-2,7],[-8,5],[-5,5],[-5,9],[1,8],[1,13],[1,9],[-1,16],[-7,36],[-2,15],[-12,40],[-14,34],[-10,16],[-2,6],[-2,4],[-9,17],[-7,7],[-6,9],[-2,7],[-2,11],[-1,11],[-4,9],[-14,34],[-6,11],[-8,15],[-8,17],[-4,17],[-6,27],[-7,20],[-13,30],[-9,23],[-16,30],[-2,7],[-4,5],[-5,8],[-7,2],[-8,0],[-11,0],[-4,0],[-4,2],[-3,5],[-2,5],[-2,6],[-3,4],[0,5],[1,3],[3,3],[3,4],[4,12],[1,12],[-1,16],[1,8],[-2,8],[-7,13],[-7,13],[-3,3],[-3,4],[0,5],[-4,4],[-6,3],[-5,6],[-4,6],[-1,4],[-2,4],[1,19],[-2,15],[-72,260],[2,7],[0,4],[0,5],[1,5],[-1,4],[0,4],[1,4],[2,4],[1,3],[-1,10],[-2,6],[-1,6],[0,10],[-1,7],[1,14],[0,5],[0,9],[-3,7],[-3,11],[-2,7],[2,14],[-1,7],[0,7],[-2,10],[-4,5],[-3,4],[0,13],[-2,7],[-3,7],[-3,5],[-3,11],[0,8],[1,10],[-1,6],[-5,11],[-6,10],[-5,11],[-4,8],[-2,7],[-2,7],[-4,6],[-3,9],[-3,6],[-3,7],[-3,9],[-5,2],[-7,4],[-2,7],[1,5],[0,9],[-1,7],[-2,8],[-4,6],[-3,7],[-3,7],[0,5],[-1,6],[-1,4],[-2,4],[-2,7],[-2,7],[-12,19],[-6,21],[-2,26],[-3,20],[-15,27],[-51,85],[-4,3],[-1,5],[-4,5],[-4,2],[1,4],[3,4],[3,2],[-1,4],[1,4],[-1,4],[-4,0],[-3,-1],[-3,2],[-3,3],[-3,2],[1,4],[2,5],[0,4],[0,5],[-2,5],[-3,-2],[-2,-2],[-5,-1],[-4,2],[-3,2],[-2,4],[-3,3],[-2,5],[0,6],[1,6],[1,6],[-1,4],[-1,3],[-3,4],[-2,3],[-3,3],[-5,7],[-3,4],[0,5],[0,4],[-2,5],[-1,3],[-2,3],[-3,4],[-1,4],[-3,4],[-1,4],[-1,4],[-1,4],[-6,9],[-3,8],[-8,14],[-2,6],[-1,3],[-4,6],[-3,10],[-5,12],[-2,7],[-5,9],[-3,7],[-2,7],[-3,12],[-3,5],[-5,0],[-5,2],[-6,0],[-3,4],[-4,3],[-10,12],[-3,6],[-3,7],[-3,8],[-6,11],[-6,8],[-3,3],[-1,4],[1,3],[3,4],[-1,7],[-2,3],[-1,4],[0,3],[-1,4],[0,4],[-2,6],[-2,5],[-2,4],[-2,4],[0,4],[-2,4],[-2,4],[-2,6],[-1,5],[-2,4],[-2,3],[-2,5],[0,5],[0,5],[0,7],[-1,7],[-1,4],[-1,4],[-1,4],[-5,3],[-2,5],[0,11],[0,20],[4,31],[7,30],[24,57],[4,7],[4,4],[6,1],[5,5],[3,3],[3,3],[5,0],[3,2],[2,4],[0,4],[1,5],[1,4],[0,7],[4,5],[0,3],[1,5],[2,5],[1,5],[3,5],[4,5],[1,3],[13,35],[21,71],[-4,49],[-3,20],[-3,27],[2,49],[16,62],[9,35],[35,74],[20,44],[-80,137]],[[20776,5877],[771,236],[-202,-236],[144,-247],[-302,-155],[-411,402]],[[20934,4894],[101,230],[281,12],[51,-219],[-231,-224],[-202,201]],[[26462,6499],[309,138],[411,5],[-86,-218],[-634,75]],[[23154,6407],[562,299],[360,-173],[-403,-253],[-519,127]],[[22671,6832],[440,98],[238,-190],[-404,-241],[-274,333]],[[21093,7419],[389,258],[72,-166],[-274,-167],[-187,75]],[[21547,5561],[36,477],[267,489],[194,-264],[-353,-150],[641,17],[123,-120],[-346,-340],[72,-172],[-202,-150],[-389,46],[-43,167]],[[22145,6280],[368,109],[0,-190],[-368,81]],[[22527,8011],[728,0],[79,161],[613,-40],[-209,-512],[-231,207],[-223,-339],[-382,5],[-80,265],[-295,253]],[[27290,9322],[505,92],[-483,-247],[-22,155]],[[26750,8195],[375,138],[461,-92],[295,-161],[-101,-103],[-432,74],[-245,-98],[-353,242]],[[18420,7585],[28,288],[181,121],[57,-472],[-266,63]],[[16964,6907],[122,604],[159,-52],[-58,-598],[-223,46]],[[15804,6849],[180,529],[591,12],[50,-282],[-115,-270],[-706,11]],[[16553,5906],[115,685],[469,46],[43,-311],[-231,-81],[159,-166],[-137,-409],[-317,-17],[-101,253]],[[17022,5118],[172,271],[58,-213],[-230,-58]],[[15883,4940],[115,196],[94,-363],[-209,167]],[[13354,2398],[446,-98],[-410,-28],[-36,126]],[[15588,4152],[216,-40],[-159,-207],[-57,247]],[[16142,2214],[65,299],[202,-6],[-267,-293]],[[17548,2375],[331,127],[-231,-317],[-100,190]],[[18333,2479],[187,201],[166,-150],[224,81],[136,-385],[346,28],[303,-149],[-86,-144],[-346,-52],[-671,501],[-259,69]],[[18758,1495],[116,242],[338,-63],[144,-259],[-43,-236],[-274,34],[-281,282]],[[18211,1443],[173,110],[281,-161],[43,-305],[-497,356]],[[17504,5492],[181,219],[86,-230],[-267,11]],[[18924,4739],[231,132],[187,-253],[-180,-127],[-238,248]],[[19328,4900],[266,-104],[-79,-144],[-187,248]],[[19688,5521],[21,92],[642,132],[72,-115],[-469,-299],[-266,190]],[[19248,6240],[353,224],[714,-351],[-288,-236],[-382,-149],[-123,299],[-267,-75],[-7,288]],[[20171,6660],[7,161],[742,241],[368,-75],[230,-212],[87,-340],[-209,-270],[-361,-115],[-86,172],[-476,-5],[-302,443]],[[20704,7200],[468,46],[-216,-161],[-252,115]],[[18542,7171],[108,305],[79,-293],[-187,-12]],[[18571,6918],[339,213],[36,-149],[-375,-64]],[[17584,6516],[57,207],[375,75],[-65,-345],[-295,-110],[-72,173]],[[13692,265],[123,391],[151,51],[389,-201],[-86,-385],[-303,-121],[-274,265]],[[13260,1380],[209,219],[533,-437],[-439,661],[108,224],[468,-69],[339,69],[-267,-345],[-432,-11],[490,-351],[223,-334],[-115,-143],[-303,218],[29,-316],[-425,86],[-15,150],[-396,218],[-7,161]],[[13757,2519],[483,11],[-223,-184],[-260,173]],[[17706,9527],[-173,342],[-50,-426],[-418,-155],[-274,-311],[-317,-126],[108,-127],[-123,-512],[-367,-189],[-50,247],[-325,-52],[15,673],[-303,69],[216,-276],[-540,-155],[-58,-173],[303,-316],[-15,-276],[195,-52],[-72,-253],[166,-219],[-382,75],[-44,472],[-180,195],[-338,-224],[-606,138],[-36,-276],[245,-6],[87,-345],[-505,-356],[188,-225],[-426,144],[109,-236],[439,-345],[-281,-184],[-137,409],[-202,-162],[-201,139],[-325,-156],[325,-57],[-130,-213],[-332,29],[-230,299],[-317,178],[101,219],[-267,247],[-79,-178],[-224,465],[144,248],[-115,822],[-259,0],[-173,253],[-216,811],[-274,357],[-101,615],[382,-334],[547,-747],[159,-627],[50,161],[390,144],[173,218],[-267,121],[-339,437],[-86,-195],[-303,310],[-14,500],[-238,-109],[-288,150],[-101,471],[-216,288],[-281,115],[-173,270],[-296,52],[51,207],[-159,362],[-310,207],[65,-471],[180,-92],[339,-529],[-108,-277],[324,-575],[-101,-115],[130,-345],[281,-224],[202,-483],[382,-334],[122,-471],[-389,391],[-115,-351],[266,-287],[245,-639],[620,-891],[-58,-121],[267,-270],[137,-420],[-151,-247],[-418,-133],[-159,121],[-461,-63],[-699,63],[50,-276],[606,-109],[-166,-368],[-303,-150],[-346,115],[-86,184],[-468,6],[-822,592],[238,207],[-310,202],[-245,-299],[252,-236],[670,-437],[-338,-184],[533,-380],[180,121],[375,-109],[223,-202],[0,-339],[-230,-52],[-173,-425],[-308,-37],[-48,15],[0,0],[-12,1],[-19,1],[-16,0],[-1,1],[-17,0],[-23,5],[-1,0],[0,0],[-25,4],[-11,1],[-19,2],[-16,4],[-1,1],[-8,2],[0,0],[-4,1],[0,0],[-408,114],[-53,15],[-30,9],[-6,1],[-63,18],[-33,9],[-52,9],[-8,1],[-37,16],[-232,70],[-1,0],[-7,2],[-20,5],[-1,0],[-72,18],[-111,25],[-47,19],[-123,47],[-2,1],[-2,72],[-1,23],[55,137],[12,78],[9,34],[7,45],[6,29],[3,18],[1,6],[5,21],[9,45],[-2,40],[1,20],[10,84],[3,44],[3,46],[0,17],[3,32],[0,42],[-1,11],[6,21],[2,7],[3,15],[1,20],[7,10],[-3,7],[2,6],[6,15],[1,4],[4,13],[2,8],[1,11],[2,9],[0,5],[3,9],[-1,7],[2,10],[1,12],[3,16],[0,5],[2,8],[-3,36],[-8,31],[-1,25],[0,3],[-1,9],[0,0],[-1,30],[-1,19],[-3,81],[0,1],[30,63],[22,62],[9,26],[6,33],[18,83],[6,27],[5,22],[-1,1],[-49,22],[-4,2],[-29,15],[-109,51],[-86,29],[-92,55],[-35,17],[-39,-20],[-32,27],[-2,20],[-36,17],[-48,22],[-2,1],[-35,24],[-9,5],[-37,19],[-37,28],[-38,14],[-25,5],[-1,1],[35,49],[25,55],[16,33],[15,35],[14,31],[5,39],[22,20],[25,35],[12,13],[15,43],[15,1],[21,13],[24,21],[34,34],[24,24],[39,39],[14,6],[0,13],[12,73],[2,13],[14,86],[-25,20],[-8,7],[-28,-5],[-45,1],[-36,3],[-72,7],[-54,9],[-42,3],[-38,-1],[0,10],[-6,56],[-14,4],[-24,23],[-77,-4],[-54,-4],[-86,0],[-44,-7],[-33,36],[-24,27],[-69,88],[-32,38],[-53,65],[-55,65],[-37,34],[-54,38],[-21,37],[-2,17],[-14,12],[-9,8],[-75,72],[-35,14],[-6,21],[-38,39],[-49,-22],[-71,-18],[-20,-11],[-2,11],[15,25],[3,27],[-36,27],[-18,32],[-7,21],[-43,2],[-20,8],[-54,56],[-51,5],[-15,-19],[-24,-8],[-45,24],[-39,13],[-57,23],[-39,23],[-56,13],[-6,21],[-33,5],[0,27],[-1,39],[-37,-6],[33,94],[75,-20],[27,-7],[22,-6],[63,-17],[58,-15],[55,-13],[14,-4],[37,-11],[35,-8],[47,-11],[18,-6],[25,-5],[219,-74],[12,0],[6,0],[6,-1],[6,-2],[10,-9],[84,-23],[80,-22],[162,-44],[4,93],[7,60],[2,25],[4,36],[8,49],[7,40],[-2,65],[14,90],[3,45],[8,26],[11,49],[4,14],[2,11],[13,99],[16,99],[4,50],[18,25],[2,34],[13,85],[17,58],[7,26],[11,52],[17,102],[4,25],[5,40],[7,41],[6,34],[10,55],[11,73],[9,65],[11,64],[6,36],[9,58],[5,21],[2,7],[7,27],[20,98],[10,56],[10,40],[13,65],[9,42],[1,2],[0,2],[12,63],[0,2],[0,2],[7,30],[12,46],[27,120],[20,60],[18,46],[21,35],[9,17],[0,0],[5,26],[10,27],[9,18],[8,23],[44,93],[17,31],[6,53],[33,85],[20,46],[28,90],[47,164],[40,171],[9,77],[3,36],[3,26],[1,1],[4,38],[2,47],[24,232],[5,48],[10,70],[5,52],[6,29],[-1,3],[-17,19],[-31,47],[-2,1],[-25,22],[-26,37],[-24,20],[-30,36],[-42,64],[-10,16],[-20,18],[-22,30],[-55,64],[-27,40],[-39,52],[-20,25],[-6,6],[-13,13],[-5,5],[-1,3],[-13,14],[-3,2],[-4,3],[-27,24],[-45,50],[-24,30],[-29,38],[-14,14],[-31,43],[-62,67],[-38,41],[-12,13],[-43,48],[-27,28],[-10,12],[-27,27],[-22,26],[-79,86],[-11,12],[-22,26],[-34,39],[-13,12],[-43,49],[-21,13],[-22,44],[-6,31],[-16,26],[-6,17],[-5,21],[-13,93],[-9,14],[-17,25],[-31,108],[-2,7],[-3,12],[-2,11],[-3,17],[-11,16],[-17,18],[-9,19],[-8,15],[0,2],[-35,73],[-5,13],[-11,30],[-9,7],[-9,6],[-23,8],[-15,6],[-49,10],[-28,-1],[-17,2],[-9,2],[-51,8],[-96,9],[-40,22],[-6,7],[-17,11],[-45,34],[-8,6],[-29,21],[-38,4],[-27,13],[-16,13],[-81,35],[-49,19],[-98,38],[-39,18],[-43,18],[-61,25],[-63,35],[-50,19],[-34,11],[-46,20],[-39,18],[-17,9],[-35,14],[-7,3],[-40,16],[-101,40],[-215,84],[-9,4],[-33,12],[-45,15],[-49,23],[-101,32],[-11,3],[-35,12],[-5,3],[-14,1],[-1,1],[-11,16],[-1,0],[-8,6],[-12,7],[-80,13],[-94,8],[-12,4],[-45,-18],[-5,-1],[-39,6],[-15,2],[-46,7],[-51,19],[-10,3],[-58,21],[0,0],[-4,2],[-28,10],[-66,21],[-69,19],[-30,17],[-23,13],[-43,12],[-19,9],[-6,3],[-33,2],[-22,-2],[-8,0],[-5,-1],[-7,0],[-4,-2],[-42,-16],[-16,-6],[-23,-1],[-15,-1],[-24,-1],[-15,0],[-33,-1],[-32,11],[-2,1],[-14,26],[-1,1],[0,1],[0,0],[-4,8],[-5,10],[-6,9],[-3,5],[-5,0],[-23,0],[-7,-2],[-13,2],[0,0],[-11,0],[-23,0],[-19,-6],[-25,1],[-26,8],[-8,3],[-25,7],[-1,3],[7,24],[1,1],[16,50],[24,51],[15,37],[15,43],[3,17],[14,20],[15,35],[16,31],[11,39],[21,23],[11,19],[7,44],[2,21],[0,2],[27,70],[-1,33],[19,32],[19,34],[7,35],[22,50],[7,5],[12,27],[14,42],[4,6],[0,0],[5,10],[6,25],[7,12],[1,3],[4,15],[12,27],[7,28],[4,15],[9,21],[9,20],[3,8],[8,20],[2,11],[1,5],[11,27],[12,29],[12,40],[11,32],[6,21],[5,11],[8,37],[17,42],[9,20],[5,13],[8,42],[-2,2],[-33,37],[-37,16],[-85,12],[-33,-2],[-28,4],[-3,0],[-72,24],[6,23],[1,19],[14,8],[-5,39],[23,14],[11,7],[19,17],[17,43],[3,28],[6,33],[2,15],[-2,34],[-1,23],[-33,45],[-3,5],[-8,21],[-14,30],[-20,35],[-18,24],[-29,44],[-13,3],[-33,47],[-102,54],[-93,48],[-167,408],[-198,117],[211,55],[0,1],[42,13],[13,2],[192,55],[90,19],[34,13],[34,8],[23,3],[37,10],[43,11],[18,1],[54,14],[15,3],[129,28],[112,35],[52,16],[50,19],[106,41],[19,8],[27,11],[40,21],[31,13],[22,12],[49,21],[32,14],[149,64],[18,9],[27,-1],[146,-5],[16,-1],[328,-2],[70,-7],[56,-17],[9,0],[42,-3],[36,0],[28,-2],[27,-3],[17,1],[21,-1],[17,-2],[0,0],[9,32],[5,22],[4,44],[4,49],[2,32],[3,23],[1,23],[2,18],[1,27],[0,29],[1,28],[1,34],[3,39],[1,51],[4,101],[4,45],[3,22],[1,41],[0,50],[-1,24],[3,29],[-3,42],[-3,25],[-4,91],[7,34],[3,18],[13,60],[85,4],[86,1],[35,10],[88,59],[18,14],[55,34],[67,13],[52,16],[50,17],[62,23],[34,9],[25,7],[50,15],[38,11],[57,31],[10,4],[78,35],[58,49],[59,31],[49,27],[50,26],[42,18],[57,30],[84,19],[80,19],[99,7],[5,0],[177,12],[2,0],[79,3],[60,-10],[38,-7],[25,-3],[69,-7],[4,-36],[0,-6],[0,-9],[1,-9],[-11,-50],[43,-107],[-2,-62],[-7,-16],[-5,-13],[-4,-85],[30,-7],[4,0],[44,-6],[107,-10],[1,0],[98,-8],[9,21],[24,30],[21,25],[18,23],[18,37],[7,17],[5,20],[6,25],[5,161],[1,16],[0,15],[38,54],[160,5],[139,2],[12,0],[-1,-14],[-2,-36],[-43,-49],[-62,-84],[-7,-11],[-17,-26],[-9,-15],[-23,-51],[46,-4],[65,-12],[1,-11],[0,-34],[9,-8],[7,-8],[5,-22],[16,-42],[10,-37],[35,-37],[26,-36],[8,-69],[-9,-43],[12,-49],[39,-5],[27,-5],[-6,-51],[0,-11],[10,-2],[43,-11],[2,0],[130,-14],[113,-26],[63,-15],[148,-40],[218,-30],[10,-1],[308,-43],[44,-5],[138,-16],[37,-7],[57,-11],[31,-5],[4,-1],[1,0],[0,0],[1,0],[1,0],[2,0],[1,0],[0,-1],[30,-5],[4,0],[126,-15],[52,-5],[84,-7],[5,-1],[55,-7],[71,-5],[103,-7],[168,-18],[98,-10],[72,-8],[59,-6],[105,-13],[67,-8],[115,-13],[134,-14],[25,-3],[26,-3],[42,-4],[60,-7],[94,-11],[41,-3],[39,-4],[74,-6],[141,-16],[11,-1],[46,-4],[31,-3],[34,-3],[41,-4],[51,-5],[47,-6],[40,-4],[26,-3],[-2,24],[-5,28],[0,15],[10,13],[-5,32],[11,12],[-4,10],[-11,25],[18,45],[-1,52],[1,148],[4,85],[1,27],[2,52],[3,98],[0,52],[4,72],[1,15],[3,46],[0,0],[-4,65],[6,39],[0,4],[-1,43],[-1,31],[0,39],[2,19],[0,18],[-11,33],[0,11],[0,2],[0,7],[0,12],[0,1],[-6,67],[0,37],[14,187],[11,110],[20,179],[0,29],[4,89],[5,52],[-5,205],[7,45],[48,313],[9,60],[34,227],[1,6],[0,2],[14,94],[15,85],[24,143],[9,118]],[[10830,2365],[11,37],[11,48],[26,17],[40,3],[29,5],[61,91],[1,2],[-9,8],[-44,-13],[-22,0],[-46,28],[-32,21],[-6,5],[-49,52],[362,91],[94,-339],[-427,-56]],[[14399,5251],[28,143],[454,-230],[-382,-51],[-100,138]],[[13981,5941],[266,212],[87,-207],[-253,-172],[-100,167]],[[11271,4595],[50,466],[411,-644],[-461,178]],[[12928,5872],[382,-121],[-129,-132],[-253,253]],[[13029,4940],[361,12],[-15,-167],[-346,155]],[[11062,3290],[94,212],[684,-356],[-209,-133],[-158,185],[-411,92]],[[15126,8431],[526,149],[-57,-172],[-469,23]],[[11186,32827],[-8,-29],[-7,-23],[-5,-22],[-2,-10],[-33,-58],[4,-105],[-15,-77],[-24,-4],[-5,-88],[-61,-59],[-61,-37],[-52,-111],[-26,-72],[-20,-53],[-35,-78],[-36,-69],[-21,-34],[-71,-131],[-29,-45],[-40,-67],[-26,-42],[-28,-47],[-29,-40],[-9,-10],[-8,-11],[-10,-13],[-13,-18],[-14,-29],[-60,-3],[-83,-18],[-156,-36],[-73,-26],[-99,-52],[-81,-44],[-78,-47],[-70,-44],[-12,-9],[-19,-10],[-69,-41],[-18,-12],[-14,-8],[-39,-25],[-17,-9],[-6,-2],[-85,-56],[-21,-10],[-88,-41],[-57,-30],[-67,-29],[-73,-32],[-23,-6],[-79,-33],[-112,-30],[-45,-7],[-69,21],[-14,10],[-5,-29],[-7,-27],[-23,-80],[-21,-88],[-14,-53],[-6,-17],[-4,-48],[-4,-48],[-22,-56],[-32,-92],[-41,-134],[-14,-56],[-3,-70],[2,-32],[5,-90],[3,-87],[6,-87],[13,-73],[15,-79],[24,-126],[36,-183],[4,-17],[5,-26],[7,-28],[9,-35],[18,-64],[34,-115],[20,-57],[33,-108]],[[8913,28811],[-32,13],[-29,15],[-66,29],[-25,10],[-34,17],[-53,22],[-88,33],[-27,10],[-125,50],[-24,9],[-24,10],[-30,13],[-98,36],[-87,22],[-45,9],[-26,5],[-156,32],[3,-193],[-89,-3],[-14,0],[-8,-11],[-22,-28],[-9,-18],[7,-38],[-8,-11],[-2,-5],[-1,-2],[-2,-4],[-14,-24],[-14,-12],[-9,-6],[-3,-6],[-2,-5],[-3,-4],[-5,-4],[-5,-2],[-6,-3],[-7,-7],[-2,-13],[2,-10],[0,-7],[-7,-10],[1,-11],[-5,-11],[-8,-11],[-4,-8],[-5,-8],[-3,-7],[0,-6],[2,-6],[6,-8],[1,-1],[-7,-19],[-2,-1],[-4,1],[-4,2],[-3,-1],[-1,-4],[2,-5],[0,-3],[-1,-3],[-2,-4],[-12,-79],[78,-119],[45,-12],[5,-1],[8,-5],[7,-5],[7,-1],[4,-1],[6,1],[32,-16],[83,-73],[-9,-45],[-83,-21],[-18,-40],[3,-138],[-16,0],[-5,1],[-1,0],[-10,0],[-14,-6],[-15,-4],[-10,-4],[-8,-3],[-4,-2],[-10,0],[-3,-4],[-4,-2],[-3,3],[-5,3],[-5,3],[-4,0],[-5,-3],[-6,-4],[-6,-8],[-5,-6],[-7,-4],[-6,-4],[-8,-1],[-6,-2],[-9,-3],[-3,-3],[-5,-2],[-6,-2],[-6,-3],[-4,-1],[-3,-3],[-2,-3],[-2,-2],[-4,-2],[-10,-6],[-540,137],[-1,33],[0,0],[-3,13],[-18,45],[-14,97],[-5,43],[-13,84],[4,21],[-11,101],[-10,83],[-4,64],[-11,122],[-4,104],[-7,105],[-5,91],[-8,89],[2,14],[2,30],[8,109],[5,82],[-39,18],[-115,45],[-87,37],[-4,3],[-1,0],[-23,14],[-132,70],[-99,53],[-49,28],[-41,20],[-35,17],[-21,5],[-48,8],[-60,16],[-77,16],[-3,0],[-75,15],[-57,11],[-36,6],[-16,3],[-5,1],[-77,16],[-73,20],[-68,16],[-69,14],[-70,13],[-59,13],[-134,27],[-64,10],[-85,17],[-105,19],[-52,12],[-53,9],[-64,14],[-52,10],[-25,4],[-20,6],[0,0],[29,52],[33,55],[28,46],[15,31],[25,40],[25,46],[21,36],[34,53],[32,47],[39,62],[44,68],[25,37],[46,70],[29,50],[25,39],[48,73],[62,92],[46,71],[40,56],[48,75],[91,136],[45,71],[37,51],[44,68],[-190,26],[-1,0],[-71,4],[-52,4],[-22,0],[-117,20],[-70,10],[-122,20],[-59,9],[-40,10],[-49,6],[-53,7],[-23,11],[-25,18],[-74,55],[-61,45],[-68,21],[-20,4],[-70,19],[-67,19],[-20,5],[-41,10],[-58,17],[-69,12],[-11,3],[-37,5],[-80,12],[-76,13],[-86,17],[-90,13],[-61,6],[-8,1],[-1,0],[-32,1],[-3,0],[-7,1],[-44,2],[-3,0],[-28,-1],[-113,-1],[-139,-1],[-7,2],[-13,6],[-66,9],[-23,-1],[-78,-2],[-86,11],[-9,5],[-36,6],[-8,0],[-55,14],[-59,5],[-31,8],[-33,6],[-6,0],[-8,0],[-77,-3],[-103,8],[-65,5],[-25,4],[-1,0],[-12,2],[0,0],[-37,9],[-69,14],[-74,18],[-50,8],[-3,0],[6,26],[15,78],[5,50],[5,28],[14,46],[0,0],[3,13],[7,21],[7,26],[19,49],[5,11],[0,2],[18,76],[7,66],[12,51],[9,50],[11,113],[0,2],[2,30],[10,35],[14,65],[10,45],[0,2],[2,37],[24,122],[8,79],[-107,-53],[-98,11],[-61,9],[-2,1],[1,53],[0,83],[-163,11],[-131,3],[-153,-4],[-81,-4],[-9,0],[-30,-1],[-190,-8],[-100,-7],[-86,-3],[-99,-17],[-13,-1],[-450,-165],[-31,40],[-1,27],[6,44],[26,57],[36,72],[24,49],[27,55],[27,61],[30,62],[38,77],[55,144],[7,14],[31,45],[6,8],[25,37],[19,25],[27,66],[18,47],[12,39],[1,21],[17,61],[17,68],[9,72],[2,18],[2,19],[2,15],[5,35],[11,78],[14,75],[15,72],[12,74],[10,84],[3,102],[2,73],[5,110],[3,88],[5,79],[4,79],[-19,94],[-20,89],[-11,62],[45,27],[177,97],[-68,14],[-42,-1],[-72,-6],[-46,6],[-34,-11],[-60,-7],[-9,47],[-5,50],[-1,49],[-10,27],[-15,66],[-14,53],[-21,84],[-20,89],[-4,16],[-13,23],[-14,31],[-9,19],[-3,39],[-4,48],[-7,54],[-5,82],[1,36],[-4,56],[6,46],[38,21],[56,30],[57,29],[55,31],[58,32],[26,13],[17,3],[-1,51],[-1,81],[-1,60],[0,47],[-4,57],[2,55],[0,40],[-7,14],[-39,64],[-4,15],[-25,51],[-17,50],[-9,25],[-3,48],[-1,58],[-2,64],[1,95],[-28,3],[-40,2],[-130,35],[-109,-11],[-39,1],[-30,6],[-73,2],[-56,7],[-72,13],[-65,0],[-37,3],[-52,4],[-23,1],[-64,8],[-101,9],[-38,2],[-42,2],[-51,6],[-29,6],[-47,2],[-30,1],[-29,-11],[-60,15],[-10,2],[-8,1],[-107,19],[7,313],[43,259],[135,21],[255,-47],[78,-10],[133,1],[56,17],[138,65],[58,11],[7,7],[12,10],[9,8],[6,4],[8,33],[7,5],[17,38],[8,18],[38,85],[41,91],[29,64],[8,20],[2,3],[2,1],[8,2],[10,0],[7,-1],[6,-7],[7,-4],[12,-5],[12,-2],[11,0],[10,6],[10,3],[14,0],[12,3],[12,1],[8,-1],[5,0],[6,1],[3,2],[5,3],[4,1],[3,-1],[4,0],[11,6],[6,10],[10,7],[12,6],[15,6],[12,8],[21,19],[-16,20],[-27,30],[-19,19],[-21,36],[-69,83],[-7,12],[-11,14],[-23,13],[-50,16],[-31,16],[-70,36],[9,14],[12,45],[1,21],[-7,12],[12,9],[13,13],[33,23],[1,1],[16,17],[14,17],[14,15],[5,4],[91,34],[15,-3],[22,-6],[50,-9],[35,7],[1,36],[40,49],[43,48],[25,32],[41,50],[30,36],[20,41],[4,7],[-15,26],[-2,5],[-7,21],[-7,22],[-3,16],[-2,12],[-2,6],[-7,12],[-7,5],[-2,3],[-10,9],[-15,13],[-14,16],[-10,14],[-7,14],[0,1],[-4,11],[-4,20],[-4,20],[-11,34],[-13,35],[8,4],[15,6],[2,8],[-10,29],[-6,25],[-10,14],[-6,15],[-14,7],[-4,6],[4,3],[18,6],[34,11],[77,26],[44,18],[70,26],[55,11],[34,17],[44,8],[42,12],[43,14],[44,9],[34,11],[40,5],[59,25],[76,32],[1,1],[55,23],[54,11],[39,15],[39,17],[35,15],[46,12],[56,19],[35,10],[33,11],[5,38],[10,56],[-15,70],[-4,24],[17,84],[5,33],[2,7],[2,50],[1,43],[0,0],[10,57],[1,21],[5,55],[4,53],[0,67],[1,64],[4,24],[3,38],[18,113],[3,36],[5,45],[-4,75],[-3,64],[-6,72],[-5,36],[0,17],[-6,43],[-17,75],[-20,86],[-13,44],[-30,87],[-34,57],[-28,62],[-10,18],[-3,4],[-102,142],[-6,9],[-2,16],[0,2],[-11,41],[-6,20],[-1,12],[-1,6],[-5,71],[-3,6],[-17,37],[-27,54],[-9,22],[-2,4],[-4,8],[-3,5],[-2,6],[-45,85],[-11,25],[-46,79],[-46,64],[-37,52],[-64,86],[-42,50],[-23,28],[-35,46],[-36,48],[-48,66],[-28,41],[-38,56],[2,0],[70,-14],[8,11],[11,16],[0,1],[19,34],[18,33],[26,40],[34,35],[49,43],[37,32],[21,19],[57,41],[80,76],[22,18],[27,27],[23,26],[21,16],[41,33],[16,15],[39,33],[35,41],[22,35],[7,32],[10,64],[14,144],[40,135],[53,96],[90,333],[76,334],[15,66],[54,58],[2,7],[21,60],[18,45],[17,30],[33,57],[11,29],[4,49],[15,113],[12,69],[3,8],[0,9],[0,2],[-5,12],[11,23],[9,19],[3,-1],[41,-22],[55,-26],[45,-21],[28,-2],[25,-10],[41,-24],[4,-3],[7,-4],[2,-1],[66,-18],[34,-15],[45,-17],[37,-10],[69,-19],[40,-20],[87,-41],[60,-25],[3,-1],[79,-30],[17,-9],[105,-53],[177,-27],[21,-6],[79,-27],[114,-45],[106,-35],[83,-14],[5,-1],[3,0],[124,-34],[59,-10],[51,-19],[139,2],[89,-5],[62,-5],[12,1],[31,7],[20,-4],[34,3],[84,4],[54,-1],[5,0],[8,-1],[6,0],[4,0],[33,-1],[123,-8],[23,2],[381,22],[36,-25],[11,32],[28,65],[1,1],[27,54],[25,22],[17,16],[13,48],[92,2],[48,6],[90,71],[23,31],[132,99],[53,29],[15,3],[16,8],[36,42],[28,30],[73,112],[31,42],[34,47],[56,89],[35,58],[28,53],[15,36],[18,30],[48,78],[31,74],[29,52],[69,106],[14,19],[57,23],[36,21],[60,33],[85,53],[47,56],[-56,-273],[-35,-182],[-5,-38],[4,-18],[-4,-30],[7,-21],[26,-69],[11,-25],[-39,-186],[-22,-66],[-20,-56],[-3,-9],[-22,-59],[0,-1],[13,-36],[-12,-53],[-7,-82],[-29,-98],[-8,-15],[-11,-19],[-24,-43],[-22,-70],[-21,-72],[-18,-79],[-23,-86],[-14,-44],[-19,-69],[-21,-77],[-23,-90],[0,-2],[2,-3],[1,-1],[1,-1],[2,-2],[0,-3],[1,-4],[1,-2],[1,-1],[2,-2],[1,-1],[1,-2],[0,-3],[-2,-2],[-4,0],[-3,-1],[-3,0],[-4,0],[-6,-1],[-2,0],[-4,0],[-2,0],[-1,0],[-2,-1],[-2,-1],[-3,-1],[-5,-3],[-4,-4],[-2,-3],[-2,-3],[-2,-2],[-4,-3],[-3,-2],[-1,-3],[-3,-6],[0,-10],[-1,-11],[0,-6],[0,-6],[-2,-5],[-2,-9],[-4,-8],[-6,-8],[-4,-6],[-5,-7],[-6,-10],[-4,-8],[-4,-7],[-1,-6],[-4,-12],[-3,-10],[-2,-7],[-3,-9],[-3,-8],[-1,-6],[-3,-9],[-1,-8],[-2,-7],[-1,-6],[-2,-6],[-2,-8],[-1,-8],[0,-5],[1,-5],[3,-5],[3,-3],[5,-4],[4,-5],[4,-6],[3,-7],[2,-5],[1,-7],[-1,-6],[0,-1],[-2,-2],[-3,-2],[-5,-1],[-5,-1],[-5,-1],[-2,0],[-4,-2],[-7,-4],[-5,-2],[-6,-1],[-3,-1],[-4,-2],[-4,-3],[-4,-3],[-3,-4],[-1,-3],[-1,-4],[0,-1],[-1,-8],[0,-4],[1,-3],[0,-2],[1,-3],[-1,-2],[0,-3],[-1,-5],[-2,-5],[-1,-4],[-1,-3],[-2,-4],[-1,-3],[0,-3],[-1,-5],[-2,-5],[0,-3],[2,-2],[11,-3],[71,-27],[152,-127],[67,-45],[48,-43],[84,-67],[33,-32],[150,-144],[59,-54],[107,-108],[16,-15],[-3,-8],[-2,-2],[-3,-5],[-2,-8],[0,-7],[0,-11],[2,-4],[3,-5],[2,-6],[0,-7],[-2,-6],[0,0],[0,-3],[-6,-6],[-1,-6],[-1,-2],[-8,-6],[-1,0],[-1,-1],[-1,-1],[-1,-1],[-1,-1],[-1,-1],[-1,-1],[-1,-1],[-1,-1],[-1,-1],[-1,-1],[-1,0],[-1,-1],[-1,-1],[0,-1],[-1,-1],[0,0],[-1,-2],[-1,0],[0,-2],[0,-3],[0,-8],[1,-7],[-3,-7],[-1,-3],[0,-7],[-2,-7],[-4,-9],[-2,-3],[-10,-11],[-4,-5],[-1,-2],[-4,-2],[-3,-1],[-3,-1],[-5,-6],[-5,-4],[-1,-4],[-2,-3],[-2,-7],[0,-4],[-1,-3],[-2,-4],[-2,-4],[-2,-3],[-2,-3],[0,0],[-1,-3],[-2,-1],[-2,-4],[-3,-4],[-3,-3],[-1,-5],[-1,-3],[-2,-5],[-1,-3],[0,-3],[-2,-4],[-1,-4],[-2,-6],[-2,-3],[-3,-6],[-4,-5],[-3,-5],[-3,-3],[-3,-7],[-2,-5],[-2,-6],[-2,-6],[-1,-4],[-2,-5],[-2,-6],[-2,-4],[-2,-3],[-1,-4],[-1,-5],[-2,-5],[-3,-4],[-1,-1],[-2,-2],[-2,-3],[-3,-4],[-3,-3],[-3,-3],[-3,-3],[-4,-4],[-4,-4],[-2,-4],[-1,-1],[-2,-3],[-1,-2],[-1,-2],[-1,-3],[-2,-2],[-2,-4],[-1,-1],[-2,-2],[-1,-3],[-1,-1],[0,-1],[-1,-1],[-1,-1],[-1,-2],[-2,1],[-2,-5],[0,-1],[-26,-51],[-1,-2],[-59,-107],[-39,-81],[-37,-101],[-38,-82],[-20,-36],[-8,-20],[-6,-17],[-34,-58],[-19,-30],[-34,-64],[-16,-32],[-15,-30],[-19,-34],[65,-2],[99,-10],[6,0],[7,-1],[3,0],[2,-1],[3,-1],[5,-1],[6,-1],[11,-2],[9,0],[4,-1],[4,-1],[2,-1],[1,0],[6,0],[8,0],[11,0],[14,-1],[13,0],[18,-2],[20,-5],[17,-3],[16,-3],[17,-3],[13,-2],[9,-1],[10,-1],[10,-2],[12,-2],[14,-3],[15,-2],[17,-2],[19,-3],[18,-1],[18,-3],[15,-1],[11,-1],[11,-2],[18,-3],[16,-3],[18,-4],[16,-2],[14,-2],[17,-3],[13,-3],[9,-2],[12,-2],[10,-2],[8,-2],[13,-4],[13,-5],[9,-2],[9,-3],[8,-4],[7,-3],[10,-5],[8,-4],[6,-2],[5,-2],[3,-1],[1,0],[3,-2],[3,0],[3,-1],[1,0],[3,-2],[2,-1],[4,-1],[1,0],[1,-1],[0,-1],[2,-4],[2,-3],[2,-5],[1,-5],[2,-4],[0,-4],[0,-6],[0,-4],[0,-2],[0,-1],[0,-4],[0,-6],[1,-3],[-1,-1],[-5,-34],[18,-156],[8,-80],[8,-103],[6,-97],[1,-3],[1,-3],[1,-3],[1,-3],[2,-4],[0,-3],[2,-3],[1,-4],[1,-1],[1,-3],[1,-2],[1,-3],[1,-3],[2,-4],[2,-3],[2,-4],[2,-4],[1,-2],[2,-5],[2,-5],[1,-4],[2,-5],[1,-6],[2,-4],[0,-1],[1,-2],[2,-4],[2,-5],[2,-4],[4,-6],[2,-5],[3,-5],[2,-5],[1,-4],[1,-2],[3,-6],[5,-9],[4,-8],[3,-7],[4,-9],[4,-7],[3,-7],[5,-8],[3,-6],[3,-6],[4,-7],[2,-5],[5,-8],[5,-7],[3,-7],[3,-6],[4,-7],[3,-7],[5,-9],[5,-8],[3,-5],[2,-6],[2,-5],[1,-3],[1,-4],[2,-5],[3,-6],[2,-6],[2,-6],[3,-6],[2,-8],[-1,-10],[0,-6],[0,-8],[1,-9],[0,-9],[1,-10],[1,-8],[0,-8],[1,-3],[2,-7],[1,-5],[3,-6],[1,-4],[2,-6],[4,-7],[4,-8],[4,-5],[3,-3],[4,-3],[5,-4],[4,-3],[3,-1],[3,-2],[3,-1],[1,-1],[2,-1],[2,0],[5,-3],[8,-5],[7,-3],[7,-4],[8,-3],[9,-5],[6,-6],[6,-5],[5,-4],[6,-5],[5,-4],[3,-2],[4,-3],[4,-3],[5,-3],[5,-5],[2,-3],[3,-4],[4,-6],[5,-7],[3,-4],[3,-5],[4,-6],[3,-4],[4,-7],[4,-5],[2,-5],[3,-4],[3,-4],[4,-6],[5,-7],[4,-6],[2,-5],[3,-5],[1,-2],[3,-3],[4,-5],[3,-4],[1,-2],[2,-3],[3,-6],[4,-8],[3,-7],[3,-8],[3,-6],[17,-15],[9,-7],[5,-25],[-3,-11],[1,-2],[2,-4],[3,-4],[1,-3],[2,-2],[2,-4],[2,-3],[2,-2],[0,-1],[0,-1],[1,-3],[1,-3],[1,-1],[0,0],[1,-2],[0,-1],[1,-2],[1,-2],[0,-2],[0,-1],[0,-1],[0,0],[0,-1],[0,-1],[0,-1],[0,0],[1,-1],[0,0],[1,-3],[0,-1],[1,-2],[2,-3],[0,-4],[0,-4],[3,-2],[2,-3],[2,-2],[1,-2],[1,0],[1,-2],[2,-2],[3,-5],[2,-3],[0,-4],[1,-1],[0,-1],[0,0],[0,-3],[0,-3],[0,-8],[1,-6],[0,0],[1,-4],[0,-1],[0,-1],[0,-1],[-1,-6],[-1,-3],[0,-5],[0,-3],[0,-5],[0,-4],[0,-7],[0,-5],[-1,-3],[-1,-3],[-2,-4],[1,-5],[-2,-5],[-6,-2],[-2,-3],[-1,-5],[0,-4],[-2,-3],[-2,-7],[-4,-7],[-21,-5],[-4,-10],[-2,-11],[-1,-12],[1,-13],[4,-11],[-1,-3],[-2,-3],[-2,-3],[-1,-2],[-1,-3],[0,-1],[-1,-3],[-1,-4],[0,-3],[0,-5],[-1,-4],[-9,-14],[-9,-14],[2,-17],[3,-12],[2,-8],[-2,-12],[1,-4],[1,-5],[10,-5],[10,-4],[6,-17],[1,-8],[-1,-7],[0,-10],[2,-6],[1,-6],[3,-5],[1,-3],[4,-2],[6,-3],[4,-3],[6,0],[5,-6],[2,-2],[3,-3],[-2,-6],[-1,-3],[6,-11],[-2,-16],[-1,-6],[-6,-19],[-12,-20],[-10,-11],[-17,2],[-4,0],[-3,-3],[-1,-1],[-4,-5],[-9,-6],[-14,-12],[-16,-12],[-18,-14],[-12,-3],[-6,-7],[-2,-8],[-11,4],[-17,9],[-30,9],[-24,13],[-21,20],[-23,2],[-22,-1],[-11,-18],[-7,1],[-9,-3],[-6,-12],[-10,-16],[-9,5],[-5,2],[-3,1],[-15,2],[-20,-5],[-10,-2],[-4,-2],[-15,-7],[-3,-1],[0,-2],[1,-9],[-2,-13],[3,-1],[81,-27],[216,-85],[288,-92],[76,-20],[286,-77],[16,-3],[61,-11],[6,-1],[82,-12],[21,-3],[64,-2],[2,0],[65,-7],[9,0],[178,-14],[72,0],[1,0],[50,3],[1,0],[37,0],[28,-2],[9,-1],[26,-3],[120,-8],[72,-4],[48,1],[4,-1],[66,-7],[115,-6],[65,-5],[10,-5],[3,0],[263,-8],[73,-18],[40,-7],[13,35],[29,78],[20,52],[4,10],[1,5],[92,241],[2,5],[29,80],[24,68],[2,4],[0,1],[3,164],[34,32],[59,58],[-4,7],[-3,16],[-2,16],[2,13],[1,13],[-1,11],[-1,6],[-7,4],[-12,6],[-8,5],[-6,10],[-4,8],[-1,12],[2,7],[3,7],[3,3],[3,3],[4,2],[8,4],[4,4],[3,5],[3,7],[2,5],[0,4],[-1,6],[-3,7],[-2,4],[0,5],[2,5],[3,1],[5,0],[10,1],[9,4],[13,7],[10,3],[7,1],[3,1],[4,5],[3,3],[6,2],[11,6],[7,3],[7,3],[4,-2],[4,-6],[7,-8],[8,-7],[5,-3],[0,1],[2,5],[45,76],[78,131],[1,3],[35,83],[26,62],[46,109],[9,105],[26,100],[19,71],[16,64],[69,178],[27,70],[27,8],[20,5],[53,15],[32,8],[61,17],[31,7],[40,10],[31,7],[34,8],[32,8],[168,40],[82,20],[91,22],[46,11],[58,20],[50,18],[95,33],[53,19],[49,17],[31,11],[44,15],[200,85],[84,15],[98,34],[44,10],[104,24],[53,13],[2,1],[31,4],[46,8],[98,22],[55,12],[21,3],[91,19],[9,0],[22,1],[125,38],[5,1],[9,2],[56,10],[127,5],[0,-2],[-19,-116],[-4,-27],[-3,-33],[-10,-57],[-28,-162],[-15,-104],[-5,-61],[-16,-74],[-21,-121],[-6,-32],[-5,-38],[-3,-41],[-5,-44],[-8,-85],[-7,-17],[-3,-6],[-1,-33],[-8,-56],[-10,-50],[-11,-38],[-7,-21],[-2,-31],[-3,-27],[-12,-40],[-1,-41],[-8,-64],[-1,-9],[-6,-48],[-9,-45],[-12,-65],[-10,-65],[-10,-58],[-4,-17],[-55,-263],[-8,-26],[-7,-22],[-6,-35],[-8,-50],[-5,-26],[-6,-32],[-9,-56],[-10,-72],[0,-20],[-1,-5],[-10,-43],[0,-2],[-32,-135],[-5,-47],[0,-22],[-1,-8],[-3,-39],[-1,-19],[-1,-9],[-1,-16],[0,-10],[-2,-23],[-11,-170],[-4,-57],[-4,-54],[-7,-108],[-2,-29],[-5,-98],[2,-43],[2,-47],[6,-58],[-12,-58],[-13,-60],[6,-62],[4,-37],[5,-7],[10,-2],[0,-7],[3,-8],[35,-42],[7,-6],[-6,-14],[-1,-2],[50,-79],[1,-5],[60,-97],[3,-5],[20,-31],[12,-16],[23,-49],[27,-52],[21,-43],[7,-13],[28,-51],[53,-80],[11,-9],[121,-204],[21,-32],[47,-93],[52,-76],[84,21],[114,25],[24,3],[42,91],[1,-10],[-2,-10],[-7,-16],[-6,-25],[-4,-23],[-8,-30],[-12,-17],[-16,-17],[-7,-4],[-9,-5],[-3,-8],[2,-11],[10,-14],[4,-12],[-6,-11],[-3,-10],[-6,-7],[3,-10],[3,-2],[-1,-4],[1,-3],[-2,-8],[4,-7],[1,-5],[-2,-4],[-4,0],[-3,0],[-5,-5],[1,-2],[5,-10],[-6,-18],[-16,-35],[-3,-5],[-2,-2],[-1,-1],[-1,-4],[-1,-4],[-1,-2],[-1,-3],[-1,-2],[0,-2],[-1,-3],[-2,-2],[-1,-3],[-1,-3],[-2,-3],[-1,-2],[-1,-2],[0,-2],[0,-2],[-1,-4],[-1,-4],[0,-2],[-1,-3],[-1,-3],[-1,-4],[-2,-4],[-1,-3],[-1,-4],[-1,-3],[-1,-3],[-1,-3],[-1,-3],[0,-1],[0,-1],[0,-3],[-1,-2],[-2,-4],[-1,-4],[-1,-2],[0,-3],[-1,-3],[0,-3],[0,-4],[-1,-4],[0,-2],[-1,-4],[0,-1],[-1,-1],[0,-2],[-1,-3],[-1,-3],[-1,-4],[-1,-3],[-1,-2],[-1,-2],[0,-2],[-1,-3],[-1,-4],[-1,-2],[-1,-3],[-1,-4],[0,-1],[0,0],[-1,-2],[0,-5],[-1,-3],[-1,-3],[-1,-4],[-1,-3],[-1,-3],[0,-2],[-1,0],[-1,-4],[-1,-4],[-2,-5],[-1,-4],[-2,-3],[0,-3],[-2,-3],[0,-1],[-1,-4],[-2,-4],[-1,-4],[-1,-3],[-1,-3],[-1,-4],[-2,-3],[0,-1],[-1,-2],[-3,-5],[-1,-3],[-2,-4],[-1,-2],[-1,-3],[-1,-4],[-1,-2],[-1,-1],[-1,-2],[-1,-5],[-1,-5],[-1,-3],[-1,-4],[-2,-4],[0,-3],[-4,-1],[1,-6],[-1,-6],[-2,-5],[-2,-4],[-2,-4],[-1,-1],[-1,-1],[-1,-3],[-1,-4],[-1,-4],[-1,-3],[-1,-2],[-1,-3],[-1,-4],[-2,-5],[-2,-7],[-2,-5],[-1,-4],[-1,-2],[-1,-5],[-2,-6],[-1,-3],[-1,-5],[-1,-1],[-1,-1],[-2,-5],[-1,-6],[-3,-6],[-2,-4],[-2,-5],[-4,-7],[-4,-5],[-2,-3],[-2,-3],[1,-4],[0,-2],[-2,-5],[-3,-8],[-3,-7],[-1,-4],[-3,-5],[-4,-6],[-2,-3],[-1,-3],[-1,0],[0,-5],[-1,-2],[-2,-3],[-3,-3],[-2,-1],[-1,-1],[-2,-2],[-1,-1],[-2,-2],[-2,-3],[-1,-1],[-1,0],[-1,-2],[-1,-3],[-1,-3],[0,-3],[-1,-3],[-1,-3],[0,-2],[-1,-2],[0,-2],[-1,-2],[0,-2],[0,-2],[0,-3],[0,-1],[0,-2],[0,-1],[0,-1],[1,-1],[0,-2],[1,0],[1,-2],[1,-1],[1,-1],[1,-1],[1,0],[1,-1],[2,-1],[2,-2],[2,-1],[2,-1],[4,-2],[1,0],[1,-1],[2,-1],[1,-1],[1,0],[0,0],[1,-1],[1,0],[1,-1],[1,0],[0,0],[1,-1],[1,0],[0,0],[1,-1],[1,0],[2,-1],[1,0],[0,-1],[1,0],[1,-1],[0,0],[1,0],[1,-1],[3,-4],[-1,0],[-1,0],[-8,0],[-2,-18],[21,-72],[-12,-82],[-4,-20],[-13,-74],[-15,-113],[-20,-56],[-5,-36],[2,-34],[-6,-106],[0,-4],[0,-3],[-1,-21],[-31,-34],[-7,-7],[-4,-5],[-1,0],[-9,-10],[-5,-6],[-63,-67],[-30,-32],[-27,-27],[-15,-15],[-77,-94],[-23,-20],[-70,-80],[-58,-74],[-24,-23],[-4,-5],[-3,-2],[-12,-13],[-26,-28],[-11,-10],[-40,-34],[-116,-142],[-52,-89],[-3,-5],[-125,-212],[-1,-5],[-115,-214],[-52,-77],[-97,-136],[-10,-10],[-36,-35],[-76,-83],[-65,-85],[0,0],[-4,-5],[-3,-5],[-2,-2],[-24,-33],[-30,-32],[-7,-7],[-26,-28],[-27,-32],[-5,-4],[-87,-114],[-36,-66],[-5,-7],[-26,-43],[-27,-46],[-5,-9],[-4,-41],[-30,-25],[-16,-16],[-3,-3],[-53,-46],[-35,-37],[-2,-3],[-3,-3],[-33,-43],[-12,-25],[-104,-236],[-17,-40],[-1,-2],[-32,-82],[-12,-26],[-2,-13],[-16,-39],[-24,-59],[-15,-79],[-28,-63],[-29,-61],[10,-17],[-3,-8],[-13,-31],[-6,-15],[-37,-72],[-37,-79],[-7,-19],[-16,-51],[-16,-8],[-7,-6],[-9,-6],[-20,-5],[-32,-31],[-6,-15],[2,-18],[9,-12],[-39,-80],[-11,-15],[-18,-26],[-25,-30],[-9,-17],[-3,-39],[-2,-31],[-2,-29],[-12,-18],[-14,-12],[-8,-24],[-5,-10]],[[33336,11168],[303,-201],[-281,29],[-22,172]],[[33106,9247],[7,213],[216,-80],[-223,-133]],[[29654,8178],[360,874],[209,126],[-21,253],[872,248],[288,-483],[-238,-621],[252,120],[79,340],[202,143],[281,-46],[-562,512],[115,403],[505,-397],[137,69],[-512,805],[238,288],[50,414],[411,-23],[461,-334],[188,-310],[533,189],[43,-339],[-180,-109],[692,-265],[-7,-218],[230,6],[-129,-478],[-238,127],[-317,-156],[-1060,443],[-194,-166],[360,-553],[-86,-138],[194,-287],[-79,-397],[94,-311],[-368,18],[7,-437],[-389,-202],[-266,282],[-15,-224],[-353,161],[-411,-408],[-50,178],[-303,103],[79,483],[-108,219],[-331,-512],[43,-604],[-497,518],[158,40],[-136,380],[-188,28],[-43,248]],[[32904,8000],[130,287],[317,-218],[-101,-150],[-346,81]],[[33300,7522],[216,431],[137,-109],[-43,-443],[-310,121]],[[33682,8051],[115,305],[209,12],[-115,-415],[-209,98]],[[33351,9247],[302,-155],[-194,-86],[-108,241]],[[33862,8799],[173,477],[195,-75],[-115,-546],[-253,144]],[[33149,7010],[216,345],[29,-264],[-245,-81]],[[32875,6648],[123,259],[173,-253],[-296,-6]],[[33466,11370],[346,11],[-115,-167],[-231,156]],[[35664,8626],[86,690],[116,-304],[245,-81],[0,-190],[-260,-379],[-187,264]],[[27674,11482],[0,43],[-11,147],[-5,134],[3,11]],[[27661,11817],[18,-321],[-5,-14]],[[27857,12494],[2,14],[8,22],[-6,1],[-3,28],[9,17],[24,-2],[4,-1],[14,42],[55,73],[25,34],[35,22],[53,74],[59,90],[72,66],[3,5],[2,14],[3,16],[-3,32],[5,12],[10,7],[26,6],[5,3],[19,26],[4,11],[0,9],[-3,7],[-4,6],[-3,8],[0,8],[-1,7],[-1,6],[1,6],[2,9],[0,12],[1,12],[3,13],[5,21],[-1,9],[14,19],[8,10],[8,11],[7,9],[7,10],[15,45],[4,12],[3,6],[62,67],[81,51],[71,35],[88,44],[69,28],[41,9],[67,14],[42,9],[32,10],[23,11],[34,23],[36,10],[49,6],[88,10],[72,2],[39,6],[25,10],[34,35]],[[29300,13741],[138,-8],[403,431],[469,-166],[274,-690],[136,-604],[253,-259],[403,-173],[-367,-11],[-303,-219],[-418,98],[231,-310],[-108,-311],[266,-172],[-72,-495],[-259,-29],[144,-276],[-396,138],[180,-374],[-606,-86],[-72,230],[-432,46],[-187,-224],[302,-230],[130,-426],[-396,-310],[-65,-276],[-570,293],[166,224],[-288,495],[122,167],[-432,345],[-151,253],[-245,40],[266,535],[-129,454],[223,328],[-53,325]],[[31607,14929],[7,115],[649,-195],[381,132],[-266,-379],[-202,161],[-569,166]],[[31009,14625],[173,322],[843,-190],[324,-224],[368,-92],[50,-277],[-533,75],[65,-236],[-368,156],[-598,46],[-324,420]],[[31160,15039],[223,362],[217,-259],[-209,-184],[-231,81]],[[29618,10081],[403,35],[-136,-144],[-267,109]],[[30389,14003],[137,271],[353,-294],[454,87],[122,-276],[-273,115],[-159,-110],[555,-534],[36,-271],[-389,144],[-541,69],[-21,414],[-180,63],[-94,322]],[[31066,12640],[534,-143],[-382,-98],[-152,241]],[[30973,12819],[526,-69],[7,-133],[-505,98],[-28,104]],[[32320,13934],[130,156],[202,-133],[-332,-23]],[[25213,15926],[46,9],[958,257],[212,11],[186,-18],[251,-45],[329,37],[483,172],[36,-5],[4,0],[4,0],[4,0],[9,0],[10,2],[9,1],[9,1],[11,3],[9,2],[7,2],[7,2],[3,3],[2,8],[3,3],[4,2],[4,1],[5,1],[9,3],[5,2],[5,5],[6,4],[5,0],[5,2],[5,2],[6,1],[7,-2],[9,-1],[7,-2],[7,-2],[10,-4],[11,2],[12,4],[12,-1],[12,1],[7,-2],[11,1],[6,0],[3,-3],[-4,-1],[-5,-2],[-5,-13],[-5,-19],[19,-5],[19,-3],[15,0],[26,-3],[27,-5],[22,-5],[8,-1],[4,2],[8,2],[6,1],[12,0],[18,-2],[11,1],[7,0],[8,-4],[8,0],[15,5],[24,0],[16,-10],[9,0],[27,0],[17,4],[16,-5],[4,0],[12,-1],[10,-2],[8,0],[10,-1],[18,-6],[5,1],[14,-5],[18,-16],[3,-5],[2,-15],[12,-9],[10,-2],[28,-15],[12,-2],[18,-4],[8,-2],[13,-2],[11,-8],[14,-10],[9,-5],[10,-4],[11,-3],[14,-5],[11,-1],[12,0],[5,-2],[3,-2],[1,-12],[4,-8],[74,-40],[7,1],[34,-4],[15,-8],[12,0],[4,-2],[11,-11],[26,-16],[8,-19],[30,-11],[17,-1],[30,-3],[67,-27],[8,-8],[6,-14],[15,-6],[7,-18],[20,-5],[35,-16],[21,-5],[20,-7],[17,1],[89,-15],[45,-12],[19,-18],[33,11],[79,0],[62,-8],[59,-16],[58,-31],[117,-79],[62,-39],[-7,-40],[-6,-48],[-6,-109],[9,0],[9,-1],[19,-3],[25,-16],[4,-1],[-11,-27],[19,-5],[16,-13],[-16,-24],[-4,-22],[38,-11],[4,-2],[-4,-24],[9,-6],[14,-7],[4,-1],[46,-13],[18,-5],[22,-7],[35,-14],[26,-10],[32,-12],[20,10],[9,5],[5,4],[34,25],[16,10],[41,29],[7,3],[9,18],[87,-6],[8,0],[134,-8],[7,-2]],[[30390,15417],[-131,-22],[195,-126],[-224,-133],[-43,-247],[-259,-109],[-476,29],[87,-288],[165,98],[209,-201],[-237,-208],[-433,-161],[0,-304],[57,-4]],[[27857,12494],[-5,31],[-209,-414],[18,-294]],[[27674,11482],[-204,-527],[-329,45]],[[24837,17488],[210,-101],[212,-76],[163,-73],[56,-15],[37,4],[4,-1],[7,1],[6,1],[7,0],[8,1],[8,1],[6,2],[7,0],[7,1],[7,-1],[7,-2],[5,-1],[6,-2],[8,-2],[68,-32],[85,-31],[75,-7],[40,5],[76,24],[84,30],[95,44],[86,12],[291,81],[96,-3],[150,9],[160,-48],[71,-49],[40,-19],[59,-21],[43,-15],[42,-15],[64,-22],[45,-16],[-1,183],[20,-16],[123,-29],[67,-5],[86,25],[5,-1],[5,0],[5,0],[6,0],[5,0],[5,0],[5,0],[5,0],[5,0],[5,0],[5,1],[5,0],[5,1],[5,1],[5,1],[5,1],[5,1],[38,19],[24,-10],[34,8],[28,-4],[12,0],[43,0],[34,10],[31,8],[27,14],[20,8],[51,34],[61,56],[248,-137],[83,-69],[63,-62],[52,-46],[48,-39],[36,-27],[63,-27],[32,-15],[44,-8],[56,-4],[144,6]],[[28931,17030],[276,-45],[82,-18],[83,-22],[43,-22],[48,-38],[81,-50],[62,-38],[17,-11],[10,-26],[17,-23],[22,-22],[49,-26],[72,-34],[47,-30],[54,-46],[63,-47],[18,-20],[10,5],[6,12],[21,41],[2,4]],[[30014,16574],[325,-155],[28,-167],[289,17],[223,-247],[-382,-282],[223,-34],[-108,-253],[-222,-36]],[[30027,22201],[92,45],[76,148],[30,20],[35,23],[40,26],[33,15],[87,42],[84,43],[71,36],[46,22],[24,16],[42,28],[106,58],[34,24],[78,19],[-1,16],[-1,5],[52,15],[17,13],[76,29],[200,92],[13,6],[18,7],[48,32],[23,11],[35,16],[76,22]],[[34388,19281],[130,-153],[-173,-75],[274,-236],[-79,-247],[209,-35],[101,-356],[-195,-288],[-389,167],[-382,17],[187,-368],[-281,-69],[-194,173],[-152,-230],[-266,350],[-19,-23]],[[33159,17908],[-31,105],[-20,142],[-104,144],[-161,124],[-225,129],[-121,100],[-248,207],[-178,288],[-381,638],[-24,63],[-81,216],[-75,325],[-266,308],[-207,228],[-257,291],[-260,226],[-140,153],[-94,184],[-95,191],[-164,231]],[[25531,19382],[19,-6],[26,-10],[47,-13],[69,-23],[80,-28],[32,-15],[25,-22],[43,-19],[46,-13],[38,-19],[28,-8],[47,-10],[72,-10],[34,-5],[31,-2],[64,3],[83,9],[64,10],[51,9],[89,13],[50,-8],[97,5],[66,5],[4,10],[34,24],[27,25],[61,18],[-25,71],[18,18],[51,1],[26,-9],[12,-23],[45,24],[25,3],[20,4],[42,-33],[12,-10],[75,14],[97,-5],[198,-21],[359,-97],[177,-17]],[[27990,19222],[13,-94],[-6,-47],[9,-34],[14,-37],[3,-26],[-4,-16],[-7,-16],[4,-20],[22,-38],[26,-103],[7,-29],[38,-94],[108,-256],[71,-101],[192,-318],[50,-145],[53,-44],[52,-48],[201,-118],[103,-99],[24,-68],[-29,-166],[-13,-145],[10,-130]],[[27990,19222],[142,-1],[65,12],[41,0],[35,2],[25,0],[20,-6],[34,-23],[24,-19],[26,-15],[3,-5],[31,-6],[49,-8],[42,-10],[22,0],[29,-5],[34,-8],[25,-13],[13,-15],[8,-10],[14,-9],[37,-21],[47,-23],[33,-21],[0,-7],[-2,-8],[9,-13],[35,-28],[14,-26],[190,-131],[135,-61],[151,-72],[307,-435],[176,-543],[4,-62],[-23,2],[-13,1],[-22,1],[-39,-20],[-27,-3],[-1,-12],[-25,-1],[-52,-3],[18,-57],[7,-51],[17,-53],[11,-45],[19,-15],[23,-24],[31,-9],[56,-13],[12,-10],[17,-23],[27,-32],[43,-29],[180,-106],[48,1],[-3,-8],[0,-4],[2,-5],[6,-10],[3,-7],[5,-9],[6,-10],[27,-60],[13,-30],[25,-56]],[[30199,16932],[-33,-1],[-260,-305],[108,-52]],[[25348,19842],[200,139],[73,50],[65,45],[76,55],[31,20],[129,83],[131,89],[256,174],[85,45],[261,142],[95,50],[67,35],[30,14],[32,18],[78,41],[80,89],[85,50],[139,33],[23,13],[18,11],[156,61],[9,8],[6,13],[64,40],[10,5],[6,4],[129,67],[10,7],[211,147],[150,95],[76,46],[43,24],[19,10],[7,4],[63,35],[5,2],[32,17],[18,11],[48,28],[75,45],[25,14],[66,38],[337,206]],[[28867,21965],[294,-309],[329,-458],[100,-547],[915,-708],[136,-412],[23,-54],[30,-75],[58,-14],[52,-13],[36,-18],[1,-29],[-25,-40],[-7,-39],[15,-33],[34,-43],[44,-49],[33,7],[47,-6],[110,-502],[9,-300],[-5,-31],[-11,-19],[0,-49],[70,20],[93,24],[27,-7],[18,-13],[5,-20],[-10,-17],[-19,-15],[-53,-29],[-35,-27],[-57,-65],[-53,-71],[-3,-10],[2,-8],[15,0],[29,0],[25,1],[26,-5],[53,-22],[45,-25],[4,-3],[12,-44]],[[31279,17888],[-292,-423],[-382,-178],[15,-333],[-421,-22]],[[28867,21965],[887,621],[273,-385]],[[33159,17908],[-161,-201],[-188,368],[-216,35],[-137,-265],[-339,-218],[51,-277],[382,-143],[-94,-115],[620,-570],[122,-270],[-151,-207],[-404,-11],[-475,391],[-202,713],[-187,149],[-116,426],[-367,201],[-18,-26]],[[21913,25203],[-177,281],[93,76],[7,6],[5,4],[6,4],[6,5],[2,2],[2,7],[4,14],[8,24],[5,14],[7,19],[5,16],[1,7],[1,22],[2,24],[0,5],[4,34],[7,51],[7,41],[15,59],[19,66],[11,71],[8,28],[23,72],[23,63],[14,39],[6,18],[10,30],[-12,71],[12,70],[10,122],[39,76],[36,78],[53,80],[14,21],[15,37],[12,27],[17,39],[8,29],[31,54]],[[22272,27009],[106,-43],[67,-31],[57,-28],[53,-23],[83,-36],[65,-23],[154,-55],[20,-8],[79,-20],[106,-17],[60,-13],[24,-11],[5,-4],[14,-12],[55,-47],[42,-32],[52,-28],[46,-13],[54,-2],[71,-3],[69,-23],[41,-14],[136,-47],[115,-43],[88,-30],[141,-51],[65,-22],[63,-15],[77,-17],[114,-24],[65,-16],[78,-18],[93,-21],[80,-16],[73,4],[38,5],[43,5],[36,4],[49,4],[94,8],[27,-1],[32,1],[59,-9],[36,-4],[55,-4],[151,-10],[75,-1],[72,-2],[4,0],[26,-1],[37,-2],[21,0],[32,0],[96,-6],[13,0],[81,6],[29,4],[28,1],[27,2],[40,-1],[124,7],[65,6],[72,5],[98,7],[69,5],[103,7],[62,4],[13,1],[64,2],[45,3],[25,1],[63,2],[19,0],[71,-10],[42,-6],[22,-7],[28,-6],[43,-4],[35,-5],[1,-5],[12,-1],[26,-4],[11,-5],[5,-3],[7,-8],[17,0],[4,1],[4,1],[56,3],[45,-99],[142,-65],[180,-68],[96,-93],[138,-390],[54,5],[47,4],[40,4],[62,2],[44,6],[11,109],[42,22],[61,33],[45,23],[45,22],[31,16],[33,19],[18,1],[61,2],[101,1],[111,4],[22,0],[36,1],[92,-1],[167,2],[93,-11],[171,1],[107,-22],[35,-7],[241,-50],[54,-38],[67,-42],[101,-60],[701,-50],[42,-3],[47,-3]],[[30573,25472],[1,-13],[6,-48],[4,-60],[5,-57],[1,-9],[5,-48],[4,-13],[19,-78],[46,-87],[13,-86],[16,-38],[29,-82],[25,-80],[11,-39],[21,-67],[4,-45],[4,-33],[34,-57],[8,-52],[19,-37],[32,-98],[20,-72],[10,-29],[36,-110],[38,-100],[33,-84],[43,-64],[97,-220],[28,-46],[100,-185],[32,-57],[19,-41],[65,-127],[47,-112],[13,-68]],[[30452,26947],[-2,-56],[-2,-27],[-5,-85],[1,-12],[6,-29],[3,-28],[14,-54],[-3,-35],[5,-37],[-1,-9],[-1,-27],[3,-21],[-15,-160],[-3,-147],[68,-265],[6,-68],[12,-95],[15,-143],[20,-177]],[[22272,27009],[22,92],[2,10],[11,50],[8,29],[10,44],[6,38],[41,177],[-3,188],[-2,72],[1,21],[-1,35],[0,87],[0,3],[0,5],[0,3],[4,44],[0,17],[1,26],[2,13],[1,3],[3,56],[4,76],[0,3],[1,18],[7,111],[5,77],[10,83],[8,101],[2,72],[2,47],[1,8],[-1,8],[-11,152],[-19,202],[-10,100],[21,68],[32,100],[10,44],[26,89],[31,98],[35,119],[13,46],[16,51],[21,71],[13,45],[23,73],[15,55],[21,74]],[[22654,30013],[60,0],[26,11],[49,31],[71,43],[56,43],[82,66],[13,8],[36,23],[15,9],[101,87],[114,86],[117,48],[70,25],[204,97],[7,2],[17,31],[36,53],[18,14],[2,1],[20,14],[25,24],[2,1],[13,5],[3,1],[2,0],[4,1],[49,15],[169,101],[49,25],[7,3],[1,1],[1,1],[87,63],[56,36],[5,3],[69,43],[25,16],[77,51],[51,20],[78,35],[31,13],[63,34],[166,63],[15,8],[70,35],[37,19],[119,44],[26,83],[70,-116],[36,-76],[19,-39],[74,-156],[43,-86],[36,-75],[52,-98],[77,-143],[21,-41],[16,-27],[20,-69],[82,-206],[14,-17],[17,-33],[5,-7],[69,-81],[68,-65],[42,-19],[32,-33],[68,-40],[40,-29],[34,-23],[46,-20],[26,-11],[144,-61],[28,-14],[27,-11],[72,-33],[48,-19],[29,-9],[34,-11],[85,-23],[57,-19],[21,-9],[4,-5],[10,-10],[39,-34],[34,-25],[109,-85],[30,-25],[25,-20],[16,-16],[16,-12],[18,-14],[27,-19],[2,-2],[8,-6],[22,-16],[23,-13],[21,-9],[24,-12],[23,-14],[23,-15],[31,-17],[30,-16],[9,-5],[44,-23],[24,-12],[37,-21],[190,-102],[0,-21],[51,-16],[19,-7],[36,-10],[15,2],[59,-7],[5,-75],[39,-115],[30,-71],[39,-65],[57,-54],[12,-75],[10,-42],[22,-72],[1,-47],[-15,-48],[55,-67],[39,-64],[2,-36],[-14,-56],[-37,-88],[-27,-70],[-24,-48],[-30,-86],[-51,-130],[49,-10],[10,-2],[12,-3],[65,-13],[3,0],[38,-11],[44,-13],[29,-8],[7,-3],[2,0],[15,-3],[15,-3],[7,0],[8,-1],[24,-2],[17,-1],[21,-3],[18,-1],[41,-2],[10,0],[23,0],[25,-1],[29,0],[30,-1],[59,-2],[30,2],[39,1],[47,2],[39,2],[51,-10],[45,-8],[23,-3],[40,-9],[28,-1],[33,-5],[46,-8],[23,-3],[29,-1],[49,-15],[66,-18],[22,-6],[83,-16],[14,-4],[221,-72],[34,-13],[0,0],[7,-3],[137,-65],[286,-135],[7,-3],[42,-16],[83,-10],[1,0],[68,-10],[9,-2],[38,-5],[65,-10],[61,-19],[32,-11],[48,-14],[58,-20],[34,-11],[67,-40],[58,-30],[40,-28],[11,-8]],[[30467,27106],[-1,-19],[-2,-25],[-2,-45],[-10,-70]],[[35887,27279],[26,50],[26,50],[76,132],[69,121],[32,66],[9,16],[68,151],[33,72],[4,11],[13,26],[72,136],[29,55],[46,90],[56,111],[22,44],[60,92],[116,168],[17,12],[33,72],[132,167],[190,188],[10,32],[47,159],[20,29],[11,0],[29,-10],[18,-4],[22,11],[3,3],[50,42],[31,34],[52,57],[83,61],[55,-62],[18,-27],[31,-46],[15,-18],[32,-39],[12,125],[48,136],[12,49],[5,33],[12,147],[3,28],[26,164],[13,105],[12,79],[11,66],[57,128],[37,86],[20,86],[42,177],[147,258],[138,243],[103,190],[31,57],[42,100],[16,41],[13,38],[27,38],[39,99],[13,60],[20,78],[77,179],[46,113],[-5,60],[33,52],[147,148],[25,59],[197,541],[10,63],[18,13],[44,30],[45,39],[92,68],[20,15],[149,81],[74,62],[52,31],[20,24],[34,34],[28,32],[56,42],[251,221],[10,9],[21,25],[33,23],[45,36],[70,51],[24,26],[57,23]],[[40115,34042],[115,37],[83,92],[74,49],[65,36],[67,67],[52,51],[80,80],[30,38],[27,20],[53,50],[24,16],[28,19],[104,85],[16,16],[59,50],[36,31],[39,30],[154,125],[99,80],[72,71],[138,139],[81,75],[36,29],[20,16],[69,75],[24,39],[22,16],[66,29],[48,36],[66,61],[69,59],[71,35],[75,52],[44,41],[34,29],[8,10],[260,-193],[58,-57],[46,-45],[40,-40],[71,-62],[58,-34],[101,-64],[126,-81],[28,-28],[186,-152],[145,-71],[67,-6],[155,-107],[22,-15],[46,-30],[24,-18],[2,-2],[47,-35],[22,-15],[28,-18],[2,-1],[8,-7],[1,0],[45,-32],[29,-25],[76,-52],[10,-9],[2,-1],[2,-1],[3,-3],[13,-11],[1,-1],[6,-4],[21,-30],[-47,-51],[-47,-71],[-16,-104],[42,-117],[69,-155],[13,-60],[-7,-44],[-78,-83],[-90,-118],[-3,-4],[-24,-31],[-17,-18],[-86,-96],[-82,-107],[-38,-73],[-51,-115],[-77,-164],[-122,-239],[-72,-117],[-73,-93],[-100,-111],[-100,-102],[-79,-101],[36,-16],[1,0],[7,-4],[41,-21],[10,-4],[16,-9],[28,-15],[15,-6],[26,-13],[17,-9],[17,-9],[17,-9],[14,-6],[13,-7],[13,-7],[15,-7],[3,-1],[20,-10],[11,-6],[6,-3],[6,-3],[3,-2],[3,-1],[1,-1],[18,-9],[7,-4],[4,-2],[2,-1],[4,-2],[18,-8],[26,-12],[34,-17],[59,-29],[28,-13],[5,-3],[4,-2],[3,-2],[14,-7],[24,-11],[19,-13],[24,-6],[23,-11],[34,-15],[27,-14],[7,-1],[53,-27],[58,-26],[39,-21],[11,-6],[75,-43],[61,-36],[18,-11],[26,-8],[26,-10],[26,-12],[22,-13],[29,-14],[20,-10],[14,-6],[21,-13],[21,-10],[28,-18],[34,-18],[150,-68],[45,-23],[84,-47],[95,-38],[51,-23],[46,-29],[26,-16],[44,-12],[50,-19],[66,-34],[15,-11],[39,-21],[34,-24],[143,-80],[51,-33],[44,-31],[97,-61],[136,-92],[88,-58],[51,-30],[65,-39],[66,-40],[62,-34],[38,-18],[216,-124],[525,-403],[-20,-24],[-11,-9],[-17,-19],[-13,-16],[-23,-26],[-19,-23],[-23,-27],[-26,-31],[-21,-25],[-26,-42],[-12,-20],[-25,-30],[-25,-31],[-38,-34],[-27,-33],[-27,-34],[-23,-47],[-15,-26],[-15,-29],[-9,-27],[-9,-24],[-6,-16],[-26,-38],[-27,-40],[-32,-46],[-33,-50],[-1,-2],[-23,-45],[-11,-24],[-31,-66],[-19,-40],[8,-43],[7,-31],[-32,-26],[-13,-11],[-25,-23],[-4,-3],[-34,-31],[-38,-34],[-26,-42],[-28,-50],[-28,-52],[-25,-29],[-20,-26],[-18,-27],[-18,-31],[-31,-54],[-29,-45],[-18,-28],[-12,-24],[-9,-15],[-22,-35],[-21,-36],[-28,-44],[-16,-28],[-12,-211],[-2,-23],[0,-8],[-11,-182],[0,-34],[9,-64],[-3,-25],[-2,-52],[-5,-85],[-2,-23],[-6,-92],[-4,-46],[-12,-72],[-7,-46],[-2,-63],[-50,-166],[-24,-68],[-18,-48],[-6,-23],[-19,-69],[-1,-5],[-3,-77],[-4,-42],[-2,-57],[-9,-101],[-34,-156],[-10,-45],[-68,-80],[-23,-142],[-8,-56],[-3,-17],[-18,-134],[2,-29],[-41,-10],[0,-2],[-2,-76],[-6,-213],[-12,-159],[-3,-38],[-14,-186],[-2,-26],[0,-27],[3,-73],[-1,-11],[-6,-41],[-3,-48],[-1,-35],[-12,-112],[-20,-13],[-105,-71],[-2,-1],[-116,-77],[-31,-21],[-12,-8],[-2,-1],[-39,-26],[-47,-31],[-20,-15],[-61,-12],[-66,-56],[-46,-12],[-23,-20],[-71,-60],[-18,-16],[-3,-3],[-19,-15],[-20,-18],[-12,-9],[-19,-15],[-25,-19],[-49,-42],[-26,-22],[-149,-121],[-100,-93],[-116,-90],[-11,-9],[-7,-6],[-4,-5],[-4,-8],[-2,-3],[-6,-6],[-5,-5],[-7,-4],[-13,-7],[-8,-7],[-9,-5],[-16,-11],[-7,-7],[-10,-10],[-15,-14],[-15,-16],[-17,-18],[-12,-15],[-12,-13],[-14,-15],[-2,-3],[-13,-12],[-17,-18],[-13,-13],[-11,-6],[-20,-10],[-27,-13],[-10,-4],[-15,-6],[-13,-6],[-23,-9],[-4,-1],[-2,0],[-2,-2],[-9,-4],[-3,0],[-3,-3],[-14,-8],[-37,-19],[-18,-9],[-4,-1],[-17,-11],[-8,-7],[-8,-1],[-5,-2],[-3,-2],[-1,0],[-26,-14],[-28,-15],[-3,-2],[-9,-4],[-8,-5],[-48,-84],[-1,-1],[0,-1],[-2,-3],[-1,-2],[-1,-1],[-40,-69],[-86,-148],[0,-1],[-7,-12],[-8,-17],[-17,-42],[-4,-19],[-4,-23],[-4,-11],[-6,-16],[-13,-30],[0,0],[-22,-55],[-11,-53],[5,-22],[-6,-23],[-22,-41],[-8,-38],[-8,-40],[-17,-37],[0,-2],[-1,-1]],[[42872,23158],[-7,2],[-229,77],[-179,-453],[-23,3],[-20,11],[-16,5],[-22,6],[27,52],[-184,79],[-94,40],[-289,124],[-34,25],[-4,2],[-71,33],[-191,82],[-41,15],[-32,16],[-44,19],[-96,43],[-17,10],[-18,10],[-65,30],[-52,39],[-61,32],[-74,52],[-15,10],[-110,91],[-11,8],[-5,8],[-18,10],[-7,-1],[-3,-4],[-5,-9],[-4,-3],[-5,-2],[-3,-2],[-4,-2],[-3,-4],[-1,-3],[-2,-3],[-2,-3],[-4,-5],[-4,-4],[-5,-3],[-3,-5],[-3,-4],[-4,-5],[-3,-5],[-1,-6],[0,-5],[0,-4],[-1,-5],[0,-3],[0,-6],[0,-5],[0,-5],[-1,-4],[0,-3],[-1,-4],[-2,-6],[-1,-3],[-2,-4],[-2,-3],[-2,-3],[-4,-6],[-2,-4],[-2,-3],[-2,-5],[-2,-3],[-3,-4],[-5,-4],[-5,-4],[-3,-3],[-2,-4],[-2,-3],[-2,-4],[-2,-5],[-1,-5],[-1,-3],[-1,-3],[-1,-3],[0,-4],[1,-4],[-1,-5],[-1,-4],[-1,-4],[-1,-3],[-2,-4],[-1,-3],[-1,-5],[-1,-6],[-2,-6],[-1,-4],[0,-4],[0,-3],[0,-5],[-2,-6],[-2,-5],[-2,-3],[-2,-4],[-2,-4],[-2,-7],[-1,-5],[-1,-4],[0,-5],[1,-6],[-2,-4],[-3,-5],[-2,-3],[-2,-4],[-1,-3],[-2,-5],[-1,-6],[-1,-4],[-2,-5],[-1,-4],[0,-9],[-1,-6],[-3,-6],[-4,-4],[-3,-7],[-2,-4],[-3,-5],[-2,-7],[-2,-4],[-2,-4],[-2,-3],[-4,-4],[-3,-4],[-4,-3],[-63,-106],[-25,-40],[-1,-4],[-2,-5],[-3,-6],[-1,-5],[-2,-4],[0,-4],[-1,-3],[-1,-5],[-1,-5],[-1,-6],[-1,-5],[-4,-4],[-2,-4],[-7,-15],[-16,-13],[-2,-3],[-3,-4],[-3,-3],[-3,-5],[-4,-4],[-5,-3],[-4,-6],[-3,-4],[-7,-7],[-77,-43],[-10,-14],[0,-3],[0,-6],[0,-10],[-6,-7],[-4,-4],[-4,-4],[-4,-2],[-3,-3],[-3,-4],[-4,-2],[-4,-1],[-3,-3],[-4,-5],[-5,-7],[-4,-3],[-50,-51],[-83,-84],[-41,-27],[-11,-48],[-56,-84],[-20,-7],[-41,14],[-26,7],[-3,6],[-19,10],[-10,16],[-2,4],[-3,4],[-5,7],[-5,7],[-5,7],[-7,6],[-6,6],[-7,5],[-6,5],[-8,5],[-7,4],[-8,4],[-8,4],[-8,3],[-8,2],[-8,2],[-9,2],[-8,1],[-9,1],[-9,0],[-48,1],[-22,0],[-24,1],[-143,21],[-20,3],[-4,1],[-4,0],[-4,0],[-4,0],[-4,-1],[-4,-1],[-4,0],[-4,-2],[-4,-1],[-3,-2],[-4,-1],[-4,-2],[-3,-3],[-3,-2],[-3,-3],[-3,-2],[-3,-3],[-3,-3],[-2,-4],[-3,-3],[-2,-3],[-2,-4],[-1,-4],[-2,-3],[0,-3],[-4,-11],[0,-2],[-2,-5],[-3,-5],[-2,-5],[-3,-5],[-3,-5],[-3,-4],[-3,-4],[-4,-4],[-4,-4],[-4,-4],[-5,-3],[-4,-3],[-5,-3],[-5,-3],[-5,-2],[-5,-2],[-6,-2],[-1,0],[-5,-1],[-6,-1],[-5,-1],[-6,-1],[-5,0],[-6,1],[-5,0],[-5,1],[-4,1],[-5,1],[-5,2],[-1,0],[-5,2],[-4,2],[-5,2],[-4,3],[-4,3],[-3,3],[-4,3],[-2,2],[-3,3],[-3,4],[-3,4],[-3,4],[-13,-22],[-16,-25],[-7,-10],[-9,-11],[-11,-11],[-11,-9],[-8,-7],[-13,-3],[-13,-2],[-18,4],[-13,5],[-13,7],[-8,7],[-10,12],[-10,15],[-12,13],[-11,12],[-15,12],[-9,6],[-12,3],[-10,2],[-20,5],[-22,8],[-26,10],[-45,12],[-150,15],[-2,14],[-1,7],[-1,5],[-1,8],[-2,12],[-2,8],[-2,11],[-3,9],[-3,11],[-5,12],[-4,12],[-5,10],[-4,8],[-5,9],[-5,7],[-5,8],[-7,10],[-5,6],[-7,9],[-9,10],[-9,10],[-2,2],[-6,7],[-10,11],[-10,10],[-10,11],[-9,11],[-11,12],[-12,13],[-11,11],[-9,11],[-9,9],[-10,11],[-11,12],[-11,12],[-11,12],[-4,4],[-8,8],[-14,15],[-16,16],[-16,14],[-14,12],[-10,9],[-11,9],[-14,11],[-15,11],[-15,11],[-13,9],[-10,7],[-14,10],[-10,6],[-20,13],[-5,4],[-37,25],[-6,-7],[-3,-24],[-4,-23],[-15,-3],[-40,-3],[-9,-1],[-9,0],[-26,-1],[-29,-1],[-59,0],[-87,-1]],[[38114,23115],[115,73],[-86,218],[-389,345],[-426,-46],[-21,173],[-260,-156],[-86,190],[713,357],[-108,230],[-403,80],[-108,489],[-353,420],[36,339],[-310,386],[-123,753],[-418,313]],[[42872,23158],[0,0],[-1,-2],[-9,-27],[-27,-76],[-6,-21],[-13,-48],[-40,-108],[-42,-133],[-1,-15],[-6,-81],[-33,-58],[-21,-36],[-15,-25],[-14,-26],[-7,-24],[-16,-55],[-35,-39],[-37,-32],[-1,-1],[-22,-32],[-19,-27],[-46,-97],[-20,-29],[-8,-20],[-17,-39],[-19,-45],[-4,-8],[-3,-34],[4,-60],[-42,-78],[-15,-53],[2,-20],[-18,-60],[-21,-35],[-31,-65],[-47,-101],[-12,-23],[-6,-5],[-22,-43],[-5,-10],[-19,-59],[-13,-53],[-16,-61],[-8,-32],[-2,-68],[-1,-3],[0,-1],[-5,-28],[-7,-29],[10,-51],[11,-16],[4,-5],[13,-16],[21,-28],[39,-40]],[[42204,20977],[-47,-23],[-327,-125],[-11,-5],[-93,-37],[-64,-17],[-21,-13],[-62,-25],[-62,-27],[-61,-26],[-111,-57],[-64,-28],[-100,-69],[-64,-48],[-40,-25],[-34,-21],[-50,-26],[-16,-11],[-35,-18],[-32,-20],[-42,-25],[-55,-46],[-41,-25],[-59,-33],[-32,-17],[-37,-21],[-36,-26],[-30,-21],[-25,-22],[-17,-18],[-35,-33],[-34,-27],[-16,-31],[-54,-33],[-21,-18],[-24,-15],[-30,-24],[-45,-38],[-4,-4],[-24,-19],[-5,-4],[-16,-13],[-24,-21],[-22,-9],[-20,-26],[-44,-18],[-24,-32],[-15,-15],[-38,-34],[-41,-30],[-22,-22],[-29,-23],[-9,-7],[-75,-94]],[[39865,19512],[-106,58],[-299,78],[-56,5],[-51,5],[-87,36],[-201,73],[-281,72],[-467,118],[-61,565],[-128,145]],[[38128,20667],[116,140],[-152,276],[-389,69],[-511,408],[0,247],[259,69],[461,-161],[-266,219],[288,339],[-173,621],[353,221]],[[30452,26947],[93,-25],[235,-75],[2,8],[1,11],[0,11],[0,14],[-2,8],[-1,7],[-3,6],[-1,7],[-2,10],[-5,8],[-4,4],[-5,6],[-5,1],[-7,0],[-5,2],[-6,4],[-6,2],[-2,5],[0,5],[1,4],[4,-3],[10,5],[4,-2],[3,-5],[4,-6],[3,-1],[7,0],[11,0],[6,-3],[8,-3],[7,-3],[8,-4],[4,-1],[9,-2],[9,-2],[7,-2],[11,-1],[5,0],[2,10],[4,28],[29,-7],[28,-7],[38,-9],[24,-6],[160,-25],[60,-21],[163,-34],[94,4],[37,-5],[103,-32],[15,-4],[21,-6],[107,-24],[29,-5],[30,-1],[40,-4],[107,-33],[142,-43],[92,-53],[42,-27],[66,-43],[20,-14],[13,-9],[56,-30],[40,-23],[40,-20],[44,-20],[41,-14],[22,-11],[29,-13],[21,-18],[28,-13],[16,-7],[10,-10],[9,-7],[13,-5],[11,0],[6,-2],[8,-4],[11,-5],[11,-3],[11,-1],[8,3],[3,6],[3,14],[4,14],[7,5],[18,3],[10,0],[15,-4],[14,-2],[162,54],[322,3],[707,-84],[920,-146],[446,-146],[201,-97],[30,5]],[[35613,25989],[-21,-24],[274,-178],[-36,-408],[129,-328],[-771,46],[43,-374],[-230,132],[-360,-115],[72,-230],[-217,58],[570,-403],[194,-408],[310,-253],[144,-523],[-194,-363],[-353,167],[-404,-73]],[[35246,24091],[252,-12],[144,328],[310,-230],[180,-368],[-151,-104],[-339,92],[-396,294]],[[39865,19512],[347,-389],[10,-26],[16,-43],[-4,-17],[-5,-16],[-3,-13],[-2,-14],[-2,-16],[-2,-19],[-3,-21],[-4,-21],[-5,-16],[-6,-21],[-5,-20],[-6,-25],[-4,-16],[-13,-6],[-10,-6],[-5,-14],[-5,-15],[-10,-25],[-23,-28],[-25,-15],[-29,-19],[-16,-11],[-22,-9],[-18,-13],[-24,-19],[-35,-18],[-19,-12],[-17,-23],[-20,-37],[-10,-23],[-7,-18],[-8,-28],[-9,-31],[-18,-41],[-17,-35],[-18,-34],[-29,-48],[-17,-32],[-8,-21],[-6,-36],[-13,-37],[-36,-48],[-23,-48],[24,-33],[38,-46],[34,-44],[24,-28],[29,-36],[16,-20],[-5,-10],[-12,-27],[-12,-23],[-8,-22],[-11,-24],[-11,-13],[-15,-34],[-5,-7],[-6,-3],[-90,46],[-17,6],[-8,5],[-143,79],[-43,-6],[-4,0],[-9,0],[-15,7],[-16,19],[-6,22],[-10,17],[-7,6],[-9,4],[-24,9],[-8,2],[-15,4],[-5,1],[-3,2],[-85,59],[-567,128],[-215,-632],[-107,-141],[-13,-62],[1,-8],[1,-12],[12,-40],[14,-49],[7,-38],[2,-44],[-1,-45],[4,-22],[5,-28],[-5,-36],[-3,-30],[1,-57],[2,-51],[-3,-39],[-7,-91],[-5,-78],[-4,-66],[-1,-22],[-12,-79],[-27,-43]],[[38319,16396],[-147,132],[-289,-75],[173,-333],[-266,-161],[-253,144],[-144,-138],[289,-139],[-116,-632],[-252,-6],[-476,190],[253,-253],[-389,-707],[-325,385],[-65,523],[166,121],[281,667],[65,466],[339,719],[302,149],[-302,58],[-65,466],[-101,-478],[-331,-63],[28,-408],[-158,-167],[-497,213],[-202,586],[-166,115],[43,248],[-187,534],[180,52],[108,696],[454,587],[36,155],[533,454],[318,-178],[-29,-173],[619,-86],[-302,345],[-79,322],[194,179],[231,-41],[245,-310],[93,113]],[[38167,16153],[-11,-20]],[[38156,16133],[1,16],[10,4]],[[36168,16890],[260,-103],[-245,-115],[-15,218]],[[35866,13998],[273,51],[159,-207],[-7,-385],[223,-236],[-180,-465],[-245,540],[-29,368],[-194,334]],[[35376,16597],[201,29],[159,-316],[-65,-242],[-216,98],[-79,431]],[[35095,16028],[273,385],[80,-356],[-353,-29]],[[35304,17270],[252,368],[281,-615],[-224,-351],[-201,138],[-108,460]],[[30467,27106],[2,16],[43,128],[5,12],[1,152],[12,21],[6,11],[50,86],[45,73],[17,41],[14,33],[5,12],[30,69],[18,26],[28,37],[48,66],[88,93],[4,4],[48,50],[11,11],[18,20],[16,17],[77,84],[42,125],[28,63],[10,21],[5,13],[25,40],[43,71],[16,29],[17,29],[12,21],[18,27],[25,43],[43,73],[0,9],[-1,17],[-2,37],[-5,86],[-8,44],[4,38],[24,131],[-76,138],[30,164],[22,143],[15,92],[-4,40],[-2,93],[0,60],[35,148],[15,121],[0,1],[13,76],[0,1],[1,34],[4,18],[3,31],[51,205],[36,74],[-1,41],[-4,73],[-11,55],[-5,24],[-4,37],[-7,133],[4,39],[5,46],[4,112],[21,76],[3,32],[15,62],[34,137],[10,33],[2,5],[3,9],[17,55],[8,31],[39,24],[102,64],[26,15],[41,9],[80,19],[32,5],[48,8],[52,14],[54,30],[16,9],[173,-10],[5,0],[71,7],[144,13],[23,0],[59,-4],[36,-2],[89,2],[52,24],[69,27],[78,35],[65,32],[10,108],[4,46],[-7,31],[-19,78],[-16,48],[-13,49],[-20,50],[1,50],[-7,83],[12,47],[7,37],[16,53],[9,29],[5,18],[18,63],[5,14],[7,26],[9,34],[11,-3],[4,-1],[3,-1],[4,-3],[6,-1],[4,-2],[4,-2],[4,-1],[6,-1],[7,-1],[7,-1],[8,0],[8,-1],[8,0],[8,-1],[3,0],[1,0],[7,-1],[10,-2],[7,-2],[7,-1],[11,-1],[6,-1],[7,0],[5,0],[6,1],[7,0],[7,0],[16,10],[22,15],[14,7],[38,10],[38,11],[29,8],[42,6],[29,11],[26,14],[21,7],[26,1],[31,3],[72,44],[61,28],[4,2],[6,4],[6,5],[4,5],[7,8],[3,4],[6,5],[7,5],[5,4],[4,2],[5,2],[6,2],[7,1],[10,2],[8,1],[7,1],[7,2],[6,3],[7,2],[7,3],[5,2],[7,4],[5,4],[4,5],[5,5],[4,4],[3,5],[4,6],[3,6],[3,6],[4,7],[5,6],[4,5],[3,5],[4,5],[4,5],[6,5],[1,1],[0,0],[0,-1],[20,3],[28,3],[29,17],[61,64],[46,53],[50,55],[-19,45],[0,1],[-22,39],[-28,39],[-18,28],[-52,79],[-27,42],[-10,19],[-34,48],[-28,27],[-25,21],[-16,20],[-27,19],[-28,20],[-18,17],[-16,19],[-20,24],[-20,29],[-17,27],[-45,49],[-56,53],[-8,11],[-24,17],[-14,10],[-19,8],[-25,24],[-40,32],[-19,15],[-41,35],[-12,13],[-57,50],[-66,148],[57,25],[135,23],[69,4],[182,60],[35,17],[23,8],[28,5],[46,10],[48,-7],[54,8],[46,28],[64,-25],[28,13],[125,3],[114,-2],[21,1],[89,-12],[40,-7],[62,-3],[52,-1],[73,-8],[67,-19],[72,-28],[38,-14],[27,-11],[24,-13],[33,-7],[125,-46],[53,-17],[19,-13],[67,-20],[39,-9],[49,-13],[0,4],[-10,5],[-12,-1],[-6,9],[-8,9],[-10,9],[-10,8],[-16,11],[-3,7],[-6,5],[-15,6],[-19,20],[-10,11],[-9,5],[-16,13],[-14,6],[-8,13],[-12,12],[-8,7],[-18,6],[-19,18],[-16,6],[-14,11],[-17,11],[-10,12],[-8,8],[-10,5],[-18,5],[-7,9],[-6,2],[-7,21],[-14,0],[-5,5],[-6,12],[-8,2],[-10,-3],[-5,2],[-8,8],[-4,2],[-8,11],[-16,2],[-6,7],[-5,0],[-5,2],[-9,13],[-8,2],[-13,19],[-9,3],[-5,6],[-9,5],[-8,10],[-8,4],[-9,6],[-5,9],[-15,8],[-10,8],[-14,7],[-7,8],[-8,5],[-13,6],[-7,6],[-23,23],[0,0],[-12,9],[-15,10],[-9,5],[-14,13],[-12,15],[-19,9],[-6,11],[-10,13],[-13,5],[-14,7],[-9,9],[-15,15],[-20,13],[-32,16],[-37,8],[-58,4],[-84,-22],[-142,-16],[-27,2],[-19,7],[12,24],[1,2],[65,38],[88,53],[63,46],[41,16],[41,21],[29,13],[67,37],[69,42],[73,42],[91,55],[21,11],[26,17],[16,11],[17,13],[11,7],[50,33],[21,13],[45,29],[10,6],[9,6],[11,11],[13,4],[27,21],[19,19],[15,15],[53,50],[45,51],[21,20],[33,30],[43,1],[34,1],[131,-1],[217,2],[57,-3],[54,2],[50,-1],[170,2],[239,3],[98,-2],[60,1],[83,1],[248,-4],[12,-1],[19,2],[145,-5],[87,-2],[58,10],[65,19],[62,-3],[30,-2],[22,-7],[100,-31],[39,1],[66,-6],[32,-1],[31,0],[78,-6],[57,4],[52,-8],[55,-2],[15,-1],[82,-5],[24,0],[21,0],[21,-1],[5,0],[20,-1],[4,0],[0,0],[58,-3],[115,-5],[127,-3],[45,0],[159,-13],[52,-2],[9,-1],[4,-2],[4,-34],[25,-6],[29,0],[60,27],[357,45],[75,23],[137,61],[58,23],[169,123],[54,-15],[6,-5],[40,-46],[13,-78],[21,-76],[6,-40],[34,-109],[5,-20],[5,-36],[11,-59],[3,-16],[70,-68],[18,-46],[180,-351],[5,-12],[3,-12],[11,-45],[15,-20],[5,-7],[15,-38],[8,-32],[-5,-18],[29,-44],[39,-65],[35,-54],[5,-51],[47,-65],[19,-33],[48,-72],[102,-133]],[[35887,27279],[-43,32],[-418,673],[-86,535],[-181,253],[-165,-6],[-512,863],[-281,-202],[-72,-258],[-180,103],[-130,-247],[324,-334],[152,-11],[936,-846],[-79,-270],[440,-374],[101,-316],[-289,-236],[-108,-259],[411,-287],[-94,-103]],[[38167,16153],[293,116],[-141,127]],[[42204,20977],[7,-13],[11,-16],[8,-13],[15,-24],[18,-28],[20,-23],[8,-16],[6,-12],[2,-8],[5,-16],[2,-20],[1,-3],[7,-4],[7,-1],[4,-1],[6,-3],[4,-5],[1,-8],[5,-4],[7,-5],[5,-1],[7,0],[8,0],[9,-2],[9,-1],[4,-1],[18,-3],[22,-3],[21,-5],[16,-5],[7,0],[11,-1],[23,-4],[20,-4],[6,-2],[10,-1],[13,-4],[10,-4],[13,-4],[16,-5],[9,-3],[14,-3],[9,0],[12,2],[5,1],[9,-2],[16,-10],[13,-7],[9,0],[21,-1],[64,-7],[57,-7],[61,-8],[41,-18],[43,-17],[-20,-43],[-3,-9],[-8,-24],[-11,-34],[-10,-31],[-1,-1],[-15,-48],[-14,-41],[-3,-13],[-10,-33],[-15,-44],[-13,-44],[-14,-42],[-14,-44],[-4,-34],[-5,-35],[-3,-38],[-11,-97],[-1,-13],[-3,-42],[10,-28],[13,-36],[8,-21],[18,-43],[22,-41],[15,-27],[22,-42],[12,-20],[18,-37],[1,-2],[0,0],[6,-13],[16,-33],[29,-52],[17,-28],[21,-38],[22,-42],[17,-31],[17,-34],[18,-34],[15,-30],[23,-50],[16,-33],[23,-45],[23,-33],[11,-20],[8,-9],[13,-25],[17,-34],[20,-48],[19,-36],[9,-27],[10,-42],[12,-49],[-3,-34],[-12,-25],[-32,-43],[-52,-188],[-34,-73],[-15,-26],[-2,-70],[-8,-18],[2,-18],[-13,-89],[-24,-36],[30,-12],[31,-12],[51,-13],[30,-5],[37,-14],[26,-10],[31,-10],[3,0],[19,-4],[38,-12],[13,-1],[21,-8],[7,-2],[1,0],[38,-10],[54,-23],[16,-3],[5,-3],[35,-7],[7,0],[1,0],[46,-12],[61,-16],[72,-8],[12,-3],[58,-15],[55,-15],[16,-5],[67,-25],[28,-6],[56,-19],[54,-18],[127,-32],[43,-12],[56,-18],[55,-18],[78,-27],[85,-34],[55,-20],[12,-6],[43,-26],[44,-18],[66,-40],[23,-2],[21,-4],[16,-1],[0,0],[8,-2],[8,-2],[2,0],[-9,-66],[-440,-155],[22,-161],[389,-236],[-130,-339],[-440,103],[-122,-80],[396,-184],[-65,-449],[-410,-610],[-238,-80],[-180,368],[-404,6],[-605,167],[94,-150],[-382,69],[-426,437],[-367,17],[490,-270],[576,-546],[548,-81],[216,-414],[-353,173],[541,-483],[-65,-271],[-555,196],[-187,-242],[266,-103],[-223,-138],[-108,-380],[137,-270],[-173,-339],[-260,-18],[15,-253],[-289,-195],[-273,23],[7,305],[-288,-29],[43,259],[-195,299],[-115,-196],[7,742],[-158,57],[-8,719],[-432,368],[-101,-385],[418,-201],[72,-512],[-591,-311],[166,-483],[-259,-109],[-440,132],[-22,857],[-410,-115],[-8,420],[-187,-270],[-245,109],[-7,213],[-296,-63],[-353,253],[-288,477],[-267,103],[22,386],[180,86],[35,318]],[[37710,15211],[58,173],[195,-248],[-253,75]],[[37393,14837],[353,87],[-21,-334],[-332,247]],[[37674,14090],[310,644],[281,-219],[339,-103],[144,-225],[-14,-310],[-217,-35],[-180,-264],[72,397],[-266,-253],[0,350],[-382,-126],[-87,144]],[[39101,12669],[94,409],[238,63],[-231,207],[7,684],[440,-305],[-108,-586],[223,-40],[144,-668],[-50,-655],[-317,-40],[108,506],[-469,195],[-79,230]],[[39836,12934],[94,109],[598,-167],[-29,-604],[-115,-97],[173,-305],[-195,-259],[58,-512],[-346,-356],[-115,-334],[-72,518],[137,805],[-188,1202]],[[39058,12048],[43,242],[505,-35],[-209,-236],[-202,-540],[-137,569]],[[39101,11047],[15,259],[209,322],[252,-11],[-7,-443],[-245,-132],[-80,-368],[-144,373]],[[39670,11145],[173,-149],[-122,-253],[-51,402]],[[41241,11565],[94,426],[101,-190],[-195,-236]],[[41386,12019],[57,639],[512,-282],[-195,-201],[382,69],[-173,-305],[-57,-368],[-245,-328],[-145,334],[195,28],[0,242],[-331,172]],[[40269,10794],[223,75],[-22,-362],[-194,23],[-7,264]],[[39137,10242],[36,276],[224,-28],[-87,-288],[-173,40]],[[38229,9794],[209,-184],[-93,-150],[-116,334]],[[38107,12986],[180,345],[-79,-426],[-101,81]],[[14146,26152],[-20,12],[-98,61],[-74,49],[-37,22],[-94,53],[-54,33],[-29,17],[-76,43],[-39,24],[-25,14],[-178,102],[-18,13],[-40,14],[-14,5],[-19,23],[-58,-86],[-29,-9],[-29,-9],[-31,-66],[-33,-5],[-41,-3],[-21,-3],[-27,-10],[-25,-33],[-41,-18],[-41,5],[-1,50],[-4,29],[-22,47],[6,61],[44,137],[2,18],[15,95],[3,10],[0,1],[71,112],[-115,6],[-81,11],[-114,17],[-44,17],[-24,26],[-30,13],[-49,27],[-58,37],[-113,68],[-47,26],[-75,50],[-63,39],[-21,22],[-102,49],[-93,57],[-11,5],[-76,48],[-73,54],[-75,100],[-70,93],[-40,57],[-62,83],[-38,51],[-20,21],[-25,25],[-37,44],[-71,93],[-81,110],[-128,147],[-78,106],[-72,70],[-88,87],[-30,74],[-19,22],[-83,92],[-56,64],[-7,19],[-25,11],[-49,35],[-4,-1],[-8,0],[-223,-23],[-1,0],[-164,-17],[-86,3],[-24,0],[-52,-3],[-67,-10],[-76,-18],[-81,-15],[-88,-8],[-161,-10],[-142,-5],[-7,0],[-105,-5],[-127,-5],[-89,1],[-86,0],[-81,-3],[-133,-5],[-8,-1]],[[11186,32827],[31,-15],[93,-42],[47,-23],[128,-54],[117,-57],[17,-8],[164,-52],[104,-45],[43,-19],[22,-18],[29,-15],[19,-13],[43,-25],[12,-10],[52,-38],[46,-34],[73,-55],[26,-15],[1,-1],[17,-12],[9,-6],[11,-8],[41,-30],[269,-122],[127,-67],[73,-46],[8,-5],[46,-25],[22,-19],[30,-16],[156,-92],[156,-81],[48,-29],[13,-5],[84,-12],[307,-139],[84,-178],[34,-172],[-39,-212],[-32,-51],[56,-104],[68,-78],[182,-127],[-34,-81],[-35,-33],[-32,-111],[-8,-39],[-26,-107],[-11,-28],[-23,-97],[6,-105],[22,-68],[12,-93],[47,-108],[4,-77],[-45,-16],[-30,-40],[-24,-29],[-44,-9],[-25,-11],[-28,-5],[-5,-46],[-1,-23],[-11,-10],[15,-12],[31,-24],[15,-16],[3,-2],[23,-9],[2,-1],[54,-28],[27,-16],[12,-10],[-11,-21],[-12,-21],[-35,-77],[16,-4],[0,0],[37,33],[17,14],[18,16],[6,5],[14,13],[29,23],[3,3],[29,21],[46,46],[43,44],[6,-11],[49,-76],[15,-22],[13,-21],[24,-37],[13,-17],[13,-24],[5,-7],[6,-9],[9,-16],[19,-31],[10,-14],[10,-23],[16,-26],[1,0],[4,-5],[14,-33],[14,-34],[30,-87],[32,-39],[43,-45],[17,-16],[1,0],[13,-7],[15,-17],[14,-12],[36,-27],[11,-9],[31,-36],[1,-1],[34,-42],[4,-44],[3,-47],[3,-61],[4,-29],[15,-29],[34,-48],[38,-44],[23,-31],[20,-35],[27,-29],[46,-60],[10,-13],[14,-20],[24,-28],[60,-68],[39,-20],[1,0],[17,0],[51,-73],[13,-36],[19,-62],[37,-44],[75,-71],[23,-18],[53,-67],[60,-108],[17,-37],[34,-83],[43,-95],[181,17],[35,5],[108,7],[68,-5],[10,0],[54,-4],[3,0],[5,-1],[9,0],[26,-2],[33,-2],[107,0],[0,0],[14,-2],[23,0],[42,5],[51,7],[172,0],[110,-5],[119,-4],[24,-1],[78,-2],[7,1],[129,-10],[12,16],[37,51],[16,23],[15,14],[52,47],[54,49],[18,13],[38,29],[57,59],[102,66],[35,31],[122,108],[41,35],[23,22],[52,104],[60,-17],[3,-1],[0,0],[1,5],[1,5],[-1,6],[-1,7],[-1,7],[-2,8],[-1,11],[-1,7],[-1,3],[-1,3],[0,3],[-1,3],[0,3],[1,4],[0,3],[1,3],[1,4],[1,3],[2,4],[1,6],[1,8],[1,6],[2,5],[2,6],[2,9],[5,11],[3,9],[1,6],[-1,2],[0,3],[0,4],[1,5],[1,1],[-1,5],[-1,11],[3,11],[2,14],[2,13],[2,13],[16,51],[3,8],[1,2],[1,12],[2,9],[2,11],[1,13],[1,7],[1,7],[1,6],[1,6],[1,3],[2,5],[0,9],[-1,12],[0,9],[-2,8],[0,9],[-2,12],[-1,13],[-2,12],[-3,13],[-3,10],[-4,12],[-1,12],[1,11],[0,10],[0,9],[0,10],[1,10],[2,4],[1,0],[-1,1],[1,4],[3,6],[1,3],[1,2],[1,2],[1,2],[1,3],[2,5],[0,2],[1,4],[1,4],[2,3],[1,2],[0,3],[0,1],[1,1],[0,1],[1,0],[0,121],[1,3],[1,3],[2,5],[1,3],[1,4],[3,6],[3,5],[2,4],[2,3],[2,4],[3,4],[1,3],[2,2],[1,2],[1,2],[1,1],[1,2],[1,1],[1,2],[2,3],[1,2],[2,1],[1,2],[1,1],[1,1],[1,1],[1,1],[1,0],[1,1],[1,0],[1,1],[1,0],[2,1],[4,0],[6,-3],[4,-5],[6,-5],[3,1],[3,4],[2,5],[-3,10],[0,11],[3,14],[-6,9],[-2,4],[7,5],[1,3],[16,-2],[3,11],[-1,8],[-4,13],[8,18],[9,25],[10,25],[7,20],[9,17],[1,9],[4,2],[4,-12],[-11,-50],[-2,-16],[7,-22],[11,-51],[8,-38],[8,-25],[5,-25],[15,-65],[18,-51],[16,-41],[19,-45],[32,-64],[17,-26],[36,-92],[-8,63],[-3,62],[-7,38],[2,57],[0,50],[3,61],[3,39],[2,24],[2,52],[6,15],[-7,48],[10,27],[12,24],[1,53],[11,25],[10,59],[-5,33],[-7,46],[5,38],[4,45],[1,21],[0,39],[1,53],[4,36],[0,23],[7,31],[8,32],[1,22],[3,29],[1,58],[2,32],[-9,52],[11,89],[2,44],[-6,38],[2,31],[0,56],[6,45],[0,22],[5,25],[13,71],[1,9],[1,1],[11,89],[0,0],[11,23],[-14,34],[-3,39],[3,82],[16,41],[17,79],[24,160],[5,35],[5,48],[5,63],[11,58],[1,11],[5,45],[0,1],[7,64],[3,20],[5,51],[9,36],[0,18],[7,41],[2,45],[3,68],[0,34],[3,46],[0,29],[17,116],[32,-1],[16,-2],[6,-12],[5,-13],[3,-4],[4,0],[163,20],[11,1],[4,0],[27,-2],[20,-1],[33,-2],[30,-4],[74,-4],[34,2],[13,0],[66,-9],[110,-14],[52,-4],[27,-5],[38,-4],[60,-5],[8,0],[45,-20],[85,6],[48,-4],[87,-9],[41,-9],[38,1],[30,-7],[23,-7],[38,-8],[44,-6],[26,-2],[43,2],[54,-2],[59,-6],[19,-2],[16,-5],[26,3],[17,3],[3,0],[26,0],[30,-7],[47,-2],[22,-1],[60,-3],[83,-5],[41,-2],[63,-6],[10,-2],[58,-6],[65,-6],[57,-3],[63,-5],[37,-2],[81,-7],[112,-4],[145,-15],[23,-3],[48,3],[22,3],[28,-32],[47,-56],[25,-30],[15,-26],[1,-2],[9,-14],[13,-27],[5,-7],[46,-83],[99,-131],[21,-34],[62,-87],[29,-65],[19,-12],[49,-29],[3,-2],[20,-11],[42,-23],[96,-59],[41,-32],[71,-56],[85,-55],[102,-62],[38,-18],[44,-27],[160,-81],[72,-40],[9,-6],[1,-1],[69,-37],[2,-1],[30,-14],[277,-134],[78,-35],[69,-31]]],"transform":{"scale":[0.000014658921335127634,0.000007801705417723153],"translate":[7.527298530316422,58.00515916230977]},"objects":{"kristiansand_delomr3":{"type":"GeometryCollection","geometries":[{"arcs":[[0,1,2,3,4]],"type":"Polygon","properties":{"objid":7784,"objtype":"Grunnkrets","lokalid":"853365e1-05bd-4f61-9f1f-0bef541eb358","navnerom":"https://data.geonorge.no/sosi/inndelinger/inndelingsbase/grunnkretser","versjonid":null,"oppdateringsdato":"20240510130632.277068+02:00","gyldigfra":"20240510","gyldigtil":null,"datafangstdato":null,"datauttaksdato":"20240910054027.892+02:00","opphav":"Kartverket","kommunenummer":"4204","delområdenummer":"420424","delområdenavn":"Nodeland","delområdenr":"24"}},{"arcs":[[-2,5,6,7,8,9,10]],"type":"Polygon","properties":{"objid":1965,"objtype":"Grunnkrets","lokalid":"22aeaf42-20a1-426d-bfda-e21b05ae0724","navnerom":"https://data.geonorge.no/sosi/inndelinger/inndelingsbase/grunnkretser","versjonid":null,"oppdateringsdato":"20231107221039.407023+01:00","gyldigfra":"20231107","gyldigtil":null,"datafangstdato":null,"datauttaksdato":"20240910054027.892+02:00","opphav":"Kartverket","kommunenummer":"4204","delområdenummer":"420425","delområdenavn":"Brennåsen","delområdenr":"25"}},{"arcs":[[11,12,13]],"type":"Polygon","properties":{"objid":10361,"objtype":"Grunnkrets","lokalid":"782b5cc5-e596-4ff3-8963-21c0569d5c8a","navnerom":"https://data.geonorge.no/sosi/inndelinger/inndelingsbase/grunnkretser","versjonid":null,"oppdateringsdato":"20231107214200.42538+01:00","gyldigfra":"20231107","gyldigtil":null,"datafangstdato":null,"datauttaksdato":"20240910054027.892+02:00","opphav":"Kartverket","kommunenummer":"4204","delområdenummer":"420411","delområdenavn":"Kongsgård øvre-Gimlekollen","delområdenr":"11"}},{"arcs":[[[-11,14,15,16]],[[17]],[[18]],[[19]],[[20]],[[21]],[[22]],[[23]],[[24]],[[25]],[[26]],[[27]],[[28]],[[29]],[[30]],[[31]],[[32]],[[33]],[[34]],[[35]],[[36]],[[37]],[[38]],[[39]],[[40]],[[41]],[[42]],[[43]],[[44]],[[45]],[[46]],[[47]],[[48]],[[49]],[[50]],[[51]],[[52]],[[53]]],"type":"MultiPolygon","properties":{"objid":298,"objtype":"Grunnkrets","lokalid":"28a25008-fde8-4a4b-8d80-0d447fbc7908","navnerom":"https://data.geonorge.no/sosi/inndelinger/inndelingsbase/grunnkretser","versjonid":null,"oppdateringsdato":"20231107221004.565365+01:00","gyldigfra":"20231107","gyldigtil":null,"datafangstdato":null,"datauttaksdato":"20240910054027.892+02:00","opphav":"Kartverket","kommunenummer":"4204","delområdenummer":"420420","delområdenavn":"Søgne Østre","delområdenr":"20"}},{"arcs":[[[-3,-17,54]],[[55]],[[56]],[[57]],[[58]],[[59]],[[60]],[[61]],[[62]]],"type":"MultiPolygon","properties":{"objid":4519,"objtype":"Grunnkrets","lokalid":"9b2c974c-56b5-4225-80d7-6f798b214131","navnerom":"https://data.geonorge.no/sosi/inndelinger/inndelingsbase/grunnkretser","versjonid":null,"oppdateringsdato":"20231107232755.825294+01:00","gyldigfra":"20231107","gyldigtil":null,"datafangstdato":null,"datauttaksdato":"20240910054027.892+02:00","opphav":"Kartverket","kommunenummer":"4204","delområdenummer":"420421","delområdenavn":"Søgne Vestre","delområdenr":"21"}},{"arcs":[[63,64]],"type":"Polygon","properties":{"objid":3368,"objtype":"Grunnkrets","lokalid":"f21a64fd-49c7-44a8-a335-b46f3b16df15","navnerom":"https://data.geonorge.no/sosi/inndelinger/inndelingsbase/grunnkretser","versjonid":null,"oppdateringsdato":"20240510130632.302887+02:00","gyldigfra":"20240510","gyldigtil":null,"datafangstdato":null,"datauttaksdato":"20240910054027.892+02:00","opphav":"Kartverket","kommunenummer":"4204","delområdenummer":"420422","delområdenavn":"Finsland","delområdenr":"22"}},{"arcs":[[[65]],[[66]],[[67]],[[68]],[[69]],[[70]],[[71]],[[72]],[[73]],[[74]],[[75]],[[76]]],"type":"MultiPolygon","properties":{"objid":11258,"objtype":"Grunnkrets","lokalid":"67e8c17d-e9ec-4c36-93b6-ab32aa686907","navnerom":"https://data.geonorge.no/sosi/inndelinger/inndelingsbase/grunnkretser","versjonid":null,"oppdateringsdato":"20231107220651.650145+01:00","gyldigfra":"20231107","gyldigtil":null,"datafangstdato":null,"datauttaksdato":"20240910054027.892+02:00","opphav":"Kartverket","kommunenummer":"4204","delområdenummer":"420401","delområdenavn":"Flekkerøy","delområdenr":"01"}},{"arcs":[[[77,78]],[[79,80]],[[81]],[[82]],[[83]],[[84]],[[85]],[[86]],[[87]],[[88]]],"type":"MultiPolygon","properties":{"objid":8828,"objtype":"Grunnkrets","lokalid":"232221b9-6ff2-4842-9f8e-816cfa19ee49","navnerom":"https://data.geonorge.no/sosi/inndelinger/inndelingsbase/grunnkretser","versjonid":null,"oppdateringsdato":"20231107221338.454139+01:00","gyldigfra":"20231107","gyldigtil":null,"datafangstdato":null,"datauttaksdato":"20240910054027.892+02:00","opphav":"Kartverket","kommunenummer":"4204","delområdenummer":"420402","delområdenavn":"Voie-Møvig","delområdenr":"02"}},{"arcs":[[89,90,-80,91,-78,92,-15,-10]],"type":"Polygon","properties":{"objid":5955,"objtype":"Grunnkrets","lokalid":"74b5acd6-76c4-4539-9257-f79d6d456f7e","navnerom":"https://data.geonorge.no/sosi/inndelinger/inndelingsbase/grunnkretser","versjonid":null,"oppdateringsdato":"20231107221041.464295+01:00","gyldigfra":"20231107","gyldigtil":null,"datafangstdato":null,"datauttaksdato":"20240910054027.892+02:00","opphav":"Kartverket","kommunenummer":"4204","delområdenummer":"420403","delområdenavn":"Midtre Vågsbygd","delområdenr":"03"}},{"arcs":[[-9,93,94,95,-90]],"type":"Polygon","properties":{"objid":996,"objtype":"Grunnkrets","lokalid":"930703d2-d749-42e7-801b-809377ce04a5","navnerom":"https://data.geonorge.no/sosi/inndelinger/inndelingsbase/grunnkretser","versjonid":null,"oppdateringsdato":"20231107224318.790255+01:00","gyldigfra":"20231107","gyldigtil":null,"datafangstdato":null,"datauttaksdato":"20240910054027.892+02:00","opphav":"Kartverket","kommunenummer":"4204","delområdenummer":"420404","delområdenavn":"Slettheia","delområdenr":"04"}},{"arcs":[[96,-14,97,98]],"type":"Polygon","properties":{"objid":3199,"objtype":"Grunnkrets","lokalid":"da249b35-d815-43e9-830e-f9b950604fee","navnerom":"https://data.geonorge.no/sosi/inndelinger/inndelingsbase/grunnkretser","versjonid":null,"oppdateringsdato":"20231107221002.234484+01:00","gyldigfra":"20231107","gyldigtil":null,"datafangstdato":null,"datauttaksdato":"20240910054027.892+02:00","opphav":"Kartverket","kommunenummer":"4204","delområdenummer":"420409","delområdenavn":"Lund-Sødal","delområdenr":"09"}},{"arcs":[[-94,-8,99,100]],"type":"Polygon","properties":{"objid":3903,"objtype":"Grunnkrets","lokalid":"3fab7ff2-bdd4-4bde-8a55-5e52da026a2b","navnerom":"https://data.geonorge.no/sosi/inndelinger/inndelingsbase/grunnkretser","versjonid":null,"oppdateringsdato":"20231107220956.227539+01:00","gyldigfra":"20231107","gyldigtil":null,"datafangstdato":null,"datauttaksdato":"20240910054027.892+02:00","opphav":"Kartverket","kommunenummer":"4204","delområdenummer":"420405","delområdenavn":"Hellemyr-Fjellro","delområdenr":"05"}},{"arcs":[[-101,101,102,-95]],"type":"Polygon","properties":{"objid":10729,"objtype":"Grunnkrets","lokalid":"19631ffa-e58f-4d12-894c-a291a88ac571","navnerom":"https://data.geonorge.no/sosi/inndelinger/inndelingsbase/grunnkretser","versjonid":null,"oppdateringsdato":"20231107221010.732034+01:00","gyldigfra":"20231107","gyldigtil":null,"datafangstdato":null,"datauttaksdato":"20240910054027.892+02:00","opphav":"Kartverket","kommunenummer":"4204","delområdenummer":"420406","delområdenavn":"Tinnheia","delområdenr":"06"}},{"arcs":[[-100,-7,103,104,105,-102]],"type":"Polygon","properties":{"objid":3569,"objtype":"Grunnkrets","lokalid":"0f72d235-f19d-48b1-a902-4ea3c5b42705","navnerom":"https://data.geonorge.no/sosi/inndelinger/inndelingsbase/grunnkretser","versjonid":null,"oppdateringsdato":"20231107220653.45078+01:00","gyldigfra":"20231107","gyldigtil":null,"datafangstdato":null,"datauttaksdato":"20240910054027.892+02:00","opphav":"Kartverket","kommunenummer":"4204","delområdenummer":"420407","delområdenavn":"Grim-Møllevann-Dalane","delområdenr":"07"}},{"arcs":[[-105,106,-99,107]],"type":"Polygon","properties":{"objid":1223,"objtype":"Grunnkrets","lokalid":"b468a26e-6da7-4666-8bb7-f381bb9828d3","navnerom":"https://data.geonorge.no/sosi/inndelinger/inndelingsbase/grunnkretser","versjonid":null,"oppdateringsdato":"20231107224320.050047+01:00","gyldigfra":"20231107","gyldigtil":null,"datafangstdato":null,"datauttaksdato":"20240910054027.892+02:00","opphav":"Kartverket","kommunenummer":"4204","delområdenummer":"420408","delområdenavn":"Kvadraturen-Eg","delområdenr":"08"}},{"arcs":[[108,109,110,-97,-107,-104,-6,-1]],"type":"Polygon","properties":{"objid":4103,"objtype":"Grunnkrets","lokalid":"5ec4e73f-1e09-4680-a934-480a3028ad5f","navnerom":"https://data.geonorge.no/sosi/inndelinger/inndelingsbase/grunnkretser","versjonid":null,"oppdateringsdato":"20231107224307.624844+01:00","gyldigfra":"20231107","gyldigtil":null,"datafangstdato":null,"datauttaksdato":"20240910054027.892+02:00","opphav":"Kartverket","kommunenummer":"4204","delområdenummer":"420412","delområdenavn":"Strai","delområdenr":"12"}},{"arcs":[[111,-110,112,113,114]],"type":"Polygon","properties":{"objid":11437,"objtype":"Grunnkrets","lokalid":"813a5156-90f7-4355-b093-94d0f2ccd94f","navnerom":"https://data.geonorge.no/sosi/inndelinger/inndelingsbase/grunnkretser","versjonid":null,"oppdateringsdato":"20240510130631.987484+02:00","gyldigfra":"20240510","gyldigtil":null,"datafangstdato":null,"datauttaksdato":"20240910054027.892+02:00","opphav":"Kartverket","kommunenummer":"4204","delområdenummer":"420413","delområdenavn":"Mosby","delområdenr":"13"}},{"arcs":[[115,116,117,118]],"type":"Polygon","properties":{"objid":5857,"objtype":"Grunnkrets","lokalid":"662a86ae-2cde-4cc4-9d56-8e95caecf1e4","navnerom":"https://data.geonorge.no/sosi/inndelinger/inndelingsbase/grunnkretser","versjonid":null,"oppdateringsdato":"20231107221023.27187+01:00","gyldigfra":"20231107","gyldigtil":null,"datafangstdato":null,"datauttaksdato":"20240910054027.892+02:00","opphav":"Kartverket","kommunenummer":"4204","delområdenummer":"420416","delområdenavn":"Tveit","delområdenr":"16"}},{"arcs":[[-118,119,120,121,122]],"type":"Polygon","properties":{"objid":6990,"objtype":"Grunnkrets","lokalid":"0f8b226e-ceb9-4a2f-b5eb-fa26bc30eea7","navnerom":"https://data.geonorge.no/sosi/inndelinger/inndelingsbase/grunnkretser","versjonid":null,"oppdateringsdato":"20231107221033.06483+01:00","gyldigfra":"20231107","gyldigtil":null,"datafangstdato":null,"datauttaksdato":"20240910054027.892+02:00","opphav":"Kartverket","kommunenummer":"4204","delområdenummer":"420417","delområdenavn":"Hånes-Timenes","delområdenr":"17"}},{"arcs":[[[-111,-112,123,124,-12]],[[125]]],"type":"MultiPolygon","properties":{"objid":13416,"objtype":"Grunnkrets","lokalid":"a1ec9cdf-8195-4471-827b-ac9df63ecb51","navnerom":"https://data.geonorge.no/sosi/inndelinger/inndelingsbase/grunnkretser","versjonid":null,"oppdateringsdato":"20231107224315.316508+01:00","gyldigfra":"20231107","gyldigtil":null,"datafangstdato":null,"datauttaksdato":"20240910054027.892+02:00","opphav":"Kartverket","kommunenummer":"4204","delområdenummer":"420414","delområdenavn":"Justvik","delområdenr":"14"}},{"arcs":[[[-122,126,127]],[[128,129]],[[130]],[[131]],[[132]],[[133]],[[134]]],"type":"MultiPolygon","properties":{"objid":12343,"objtype":"Grunnkrets","lokalid":"0461a55c-4e34-43d9-ba5f-918ccffb61cf","navnerom":"https://data.geonorge.no/sosi/inndelinger/inndelingsbase/grunnkretser","versjonid":null,"oppdateringsdato":"20231107224317.421769+01:00","gyldigfra":"20231107","gyldigtil":null,"datafangstdato":null,"datauttaksdato":"20240910054027.892+02:00","opphav":"Kartverket","kommunenummer":"4204","delområdenummer":"420418","delområdenavn":"Søm-Torsvikheia","delområdenr":"18"}},{"arcs":[[-124,-115,135,-116,136]],"type":"Polygon","properties":{"objid":4810,"objtype":"Grunnkrets","lokalid":"c6188588-7785-4308-9402-90a4025ffc7b","navnerom":"https://data.geonorge.no/sosi/inndelinger/inndelingsbase/grunnkretser","versjonid":null,"oppdateringsdato":"20231107214144.345963+01:00","gyldigfra":"20231107","gyldigtil":null,"datafangstdato":"19970425000000+02:00","datauttaksdato":"20240910054027.892+02:00","opphav":"Kartverket","kommunenummer":"4204","delområdenummer":"420415","delområdenavn":"Ålefjær","delområdenr":"15"}},{"arcs":[[[-129,137,-127,-121,138]],[[139]],[[140]],[[141]],[[142]],[[143]],[[144]],[[145]],[[146]],[[147]],[[148]],[[149]],[[150]],[[151]],[[152]]],"type":"MultiPolygon","properties":{"objid":10843,"objtype":"Grunnkrets","lokalid":"2ac8aae3-a213-44a1-b9ef-5fd95022f5ba","navnerom":"https://data.geonorge.no/sosi/inndelinger/inndelingsbase/grunnkretser","versjonid":null,"oppdateringsdato":"20231107232650.288991+01:00","gyldigfra":"20231107","gyldigtil":null,"datafangstdato":null,"datauttaksdato":"20240910054027.892+02:00","opphav":"Kartverket","kommunenummer":"4204","delområdenummer":"420419","delområdenavn":"Ytre Randesund","delområdenr":"19"}},{"arcs":[[153,-64,154,-113,-109,-5]],"type":"Polygon","properties":{"objid":13212,"objtype":"Grunnkrets","lokalid":"83b6de8d-9d2c-4494-9dd0-8065ea52ae28","navnerom":"https://data.geonorge.no/sosi/inndelinger/inndelingsbase/grunnkretser","versjonid":null,"oppdateringsdato":"20231107220953.124754+01:00","gyldigfra":"20231107","gyldigtil":null,"datafangstdato":null,"datauttaksdato":"20240910054027.892+02:00","opphav":"Kartverket","kommunenummer":"4204","delområdenummer":"420423","delområdenavn":"Stokkeland","delområdenr":"23"}}]}}}